[{"postcode":4000,"suburbs":"Brisbane, Brisbane Adelaide Street, Brisbane GPO, Spring Hill","state":"qld"},{"postcode":4005,"suburbs":"New Farm","state":"qld"},{"postcode":4006,"suburbs":"Bowen Hills, Fortitude Valley, Fortitude Valley BC, Herston, Newstead","state":"qld"},{"postcode":4007,"suburbs":"Ascot, Hamilton, Hamilton Central","state":"qld"},{"postcode":4008,"suburbs":"Pinkenba","state":"qld"},{"postcode":4010,"suburbs":"Albion, Albion BC, Albion DC","state":"qld"},{"postcode":4011,"suburbs":"Clayfield, Hendra","state":"qld"},{"postcode":4012,"suburbs":"Nundah, Toombul, Wavell Heights, Wavell Heights North","state":"qld"},{"postcode":4013,"suburbs":"Northgate","state":"qld"},{"postcode":4014,"suburbs":"Banyo, Nudgee, Nudgee Beach, Virginia, Virginia BC, Virginia DC","state":"qld"},{"postcode":4017,"suburbs":"Bracken Ridge, Brighton, Brighton Eventide, Brighton Nathan Street, Deagon, Sandgate, Sandgate DC, Shorncliffe","state":"qld"},{"postcode":4018,"suburbs":"Fitzgibbon, Taigum","state":"qld"},{"postcode":4019,"suburbs":"Clontarf, Clontarf Beach, Clontarf DC, Margate, Margate Beach, Woody Point","state":"qld"},{"postcode":4020,"suburbs":"Newport, Redcliffe, Redcliffe North, Scarborough","state":"qld"},{"postcode":4021,"suburbs":"Kippa-Ring","state":"qld"},{"postcode":4022,"suburbs":"Rothwell","state":"qld"},{"postcode":4025,"suburbs":"Bulwer, Cape Moreton, Cowan Cowan, Kooringal, Tangalooma","state":"qld"},{"postcode":4030,"suburbs":"Lutwyche, Windsor, Wooloowin","state":"qld"},{"postcode":4031,"suburbs":"Gordon Park, Kedron","state":"qld"},{"postcode":4032,"suburbs":"Chermside, Chermside BC, Chermside Centre, Chermside South, Chermside West","state":"qld"},{"postcode":4034,"suburbs":"Aspley, Boondall, Carseldine, Geebung, Zillmere","state":"qld"},{"postcode":4035,"suburbs":"Albany Creek, Bridgeman Downs","state":"qld"},{"postcode":4036,"suburbs":"Bald Hills","state":"qld"},{"postcode":4037,"suburbs":"Eatons Hill","state":"qld"},{"postcode":4051,"suburbs":"Alderley, Enoggera, Gaythorne, Grange, Newmarket, Wilston","state":"qld"},{"postcode":4053,"suburbs":"Brookside Centre, Everton Hills, Everton Park, Mcdowall, Mitchelton, Stafford, Stafford BC, Stafford DC, Stafford Heights","state":"qld"},{"postcode":4054,"suburbs":"Arana Hills, Keperra","state":"qld"},{"postcode":4055,"suburbs":"Bunya, Ferny Grove, Ferny Hills, Ferny Hills DC, Upper Kedron","state":"qld"},{"postcode":4059,"suburbs":"Kelvin Grove, Kelvin Grove DC, Red Hill","state":"qld"},{"postcode":4060,"suburbs":"Ashgrove, Ashgrove West","state":"qld"},{"postcode":4061,"suburbs":"The Gap","state":"qld"},{"postcode":4064,"suburbs":"Milton, Milton BC, Paddington","state":"qld"},{"postcode":4065,"suburbs":"Bardon","state":"qld"},{"postcode":4066,"suburbs":"Auchenflower, Mount Coot-Tha, Toowong, Toowong BC, Toowong DC","state":"qld"},{"postcode":4067,"suburbs":"St Lucia, St Lucia South","state":"qld"},{"postcode":4068,"suburbs":"Chelmer, Indooroopilly, Indooroopilly Centre, Taringa","state":"qld"},{"postcode":4069,"suburbs":"Brookfield, Chapel Hill, Fig Tree Pocket, Kenmore, Kenmore DC, Kenmore East, Kenmore Hills, Pinjarra Hills, Pullenvale, Upper Brookfield","state":"qld"},{"postcode":4070,"suburbs":"Anstead, Bellbowrie, Moggill","state":"qld"},{"postcode":4073,"suburbs":"Seventeen Mile Rocks, Sinnamon Park","state":"qld"},{"postcode":4074,"suburbs":"Jamboree Heights, Jindalee, Middle Park, Mount Ommaney, Riverhills, Sumner, Sumner Park BC, Westlake","state":"qld"},{"postcode":4075,"suburbs":"Corinda, Graceville, Graceville East, Oxley, Sherwood","state":"qld"},{"postcode":4076,"suburbs":"Darra, Wacol","state":"qld"},{"postcode":4077,"suburbs":"Doolandella, Durack, Inala, Inala East, Inala Heights, Richlands, Richlands DC","state":"qld"},{"postcode":4078,"suburbs":"Ellen Grove, Forest Lake","state":"qld"},{"postcode":4101,"suburbs":"Highgate Hill, South Brisbane, South Brisbane BC, West End","state":"qld"},{"postcode":4102,"suburbs":"Buranda, Dutton Park, Woolloongabba","state":"qld"},{"postcode":4103,"suburbs":"Annerley, Annerley DC, Fairfield, Fairfield Gardens","state":"qld"},{"postcode":4104,"suburbs":"Yeronga","state":"qld"},{"postcode":4105,"suburbs":"Moorooka, Tennyson, Yeerongpilly","state":"qld"},{"postcode":4106,"suburbs":"Brisbane Market, Rocklea, Rocklea DC","state":"qld"},{"postcode":4107,"suburbs":"Salisbury, Salisbury East","state":"qld"},{"postcode":4108,"suburbs":"Archerfield, Archerfield BC, Coopers Plains","state":"qld"},{"postcode":4109,"suburbs":"Macgregor, Robertson, Sunnybank, Sunnybank Hills, Sunnybank South","state":"qld"},{"postcode":4110,"suburbs":"Acacia Ridge, Acacia Ridge BC, Acacia Ridge DC, Heathwood, Heathwood Df, Larapinta, Pallara, Willawong","state":"qld"},{"postcode":4111,"suburbs":"Nathan","state":"qld"},{"postcode":4112,"suburbs":"Kuraby","state":"qld"},{"postcode":4113,"suburbs":"Eight Mile Plains, Runcorn","state":"qld"},{"postcode":4114,"suburbs":"Kingston, Logan Central, Logan City BC, Logan City DC, Woodridge","state":"qld"},{"postcode":4115,"suburbs":"Algester, Parkinson","state":"qld"},{"postcode":4116,"suburbs":"Calamvale, Drewvale, Stretton","state":"qld"},{"postcode":4117,"suburbs":"Berrinba, Karawatha","state":"qld"},{"postcode":4118,"suburbs":"Browns Plains, Browns Plains BC, Forestdale, Heritage Park, Hillcrest, Regents Park","state":"qld"},{"postcode":4119,"suburbs":"Underwood","state":"qld"},{"postcode":4120,"suburbs":"Greenslopes, Stones Corner","state":"qld"},{"postcode":4121,"suburbs":"Holland Park, Holland Park East, Holland Park West, Tarragindi, Wellers Hill","state":"qld"},{"postcode":4122,"suburbs":"Mansfield, Mansfield BC, Mansfield DC, Mount Gravatt, Mount Gravatt East, Upper Mount Gravatt, Upper Mount Gravatt BC, Wishart","state":"qld"},{"postcode":4123,"suburbs":"Rochedale, Rochedale South","state":"qld"},{"postcode":4124,"suburbs":"Boronia Heights, Greenbank, Lyons, New Beith, Spring Mountain","state":"qld"},{"postcode":4125,"suburbs":"Munruben, Park Ridge, Park Ridge South","state":"qld"},{"postcode":4127,"suburbs":"Daisy Hill, Priestdale, Slacks Creek, Springwood","state":"qld"},{"postcode":4128,"suburbs":"Shailer Park, Tanah Merah","state":"qld"},{"postcode":4129,"suburbs":"Loganholme, Loganholme BC, Loganholme DC","state":"qld"},{"postcode":4130,"suburbs":"Carbrook, Cornubia","state":"qld"},{"postcode":4131,"suburbs":"Loganlea, Meadowbrook","state":"qld"},{"postcode":4132,"suburbs":"Crestmead, Crestmead DC, Marsden","state":"qld"},{"postcode":4133,"suburbs":"Chambers Flat, Logan Reserve, Waterford, Waterford West","state":"qld"},{"postcode":4151,"suburbs":"Coorparoo, Coorparoo BC, Coorparoo DC","state":"qld"},{"postcode":4152,"suburbs":"Camp Hill, Carina, Carina Heights, Carindale","state":"qld"},{"postcode":4153,"suburbs":"Belmont","state":"qld"},{"postcode":4154,"suburbs":"Gumdale, Ransome, Wakerley","state":"qld"},{"postcode":4155,"suburbs":"Chandler","state":"qld"},{"postcode":4156,"suburbs":"Burbank, Mackenzie","state":"qld"},{"postcode":4157,"suburbs":"Capalaba, Capalaba BC, Capalaba DC, Capalaba West, Sheldon","state":"qld"},{"postcode":4158,"suburbs":"Thorneside","state":"qld"},{"postcode":4159,"suburbs":"Birkdale","state":"qld"},{"postcode":4160,"suburbs":"Ormiston, Wellington Point","state":"qld"},{"postcode":4161,"suburbs":"Alexandra Hills","state":"qld"},{"postcode":4163,"suburbs":"Cleveland, Cleveland DC","state":"qld"},{"postcode":4164,"suburbs":"Thornlands","state":"qld"},{"postcode":4165,"suburbs":"Mount Cotton, Redland Bay, Victoria Point, Victoria Point West","state":"qld"},{"postcode":4169,"suburbs":"East Brisbane, Kangaroo Point","state":"qld"},{"postcode":4170,"suburbs":"Cannon Hill, Morningside, Norman Park, Seven Hills","state":"qld"},{"postcode":4171,"suburbs":"Balmoral, Bulimba, Hawthorne","state":"qld"},{"postcode":4172,"suburbs":"Murarrie","state":"qld"},{"postcode":4173,"suburbs":"Tingalpa, Tingalpa BC, Tingalpa DC","state":"qld"},{"postcode":4174,"suburbs":"Hemmant","state":"qld"},{"postcode":4178,"suburbs":"Lytton, Port Of Brisbane, Wynnum, Wynnum North, Wynnum Plaza, Wynnum West","state":"qld"},{"postcode":4179,"suburbs":"Lota, Manly, Manly West","state":"qld"},{"postcode":4183,"suburbs":"Amity, Amity Point, Dunwich, North Stradbroke Island, Point Lookout","state":"qld"},{"postcode":4184,"suburbs":"Coochiemudlo Island, Karragarra Island, Lamb Island, Macleay Island, Peel Island, Perulpa Island, Russell Island","state":"qld"},{"postcode":4205,"suburbs":"Bethania","state":"qld"},{"postcode":4207,"suburbs":"Alberton, Bahrs Scrub, Bannockburn, Beenleigh, Belivah, Buccan, Cedar Creek, Eagleby, Edens Landing, Holmview, Logan Village, Luscombe, Mount Warren Park, Stapylton, Steiglitz, Windaroo, Wolffdene, Woongoolba, Yarrabilba, Yatala, Yatala DC","state":"qld"},{"postcode":4208,"suburbs":"Gilberton, Jacobs Well, Kingsholme, Norwell, Ormeau, Ormeau Hills","state":"qld"},{"postcode":4209,"suburbs":"Coomera, Pimpama, Upper Coomera, Willow Vale","state":"qld"},{"postcode":4210,"suburbs":"Guanaba, Maudsland, Oxenford, Studio Village, Wongawallan","state":"qld"},{"postcode":4211,"suburbs":"Advancetown, Beechmont, Binna Burra, Carrara, Clagiraba, Gaven, Gilston, Highland Park, Lower Beechmont, Mount Nathan, Natural Bridge, Nerang, Nerang BC, Nerang DC, Numinbah Valley, Pacific Pines, Southern Lamington","state":"qld"},{"postcode":4212,"suburbs":"Helensvale, Helensvale Town Centre, Hope Island, Sanctuary Cove","state":"qld"},{"postcode":4213,"suburbs":"Austinville, Bonogin, Mudgeeraba, Neranwood, Springbrook, Tallai, Worongary","state":"qld"},{"postcode":4214,"suburbs":"Arundel, Arundel BC, Arundel DC, Ashmore, Ashmore City, Molendinar, Parkwood","state":"qld"},{"postcode":4215,"suburbs":"Australia Fair, Chirn Park, Labrador, Southport, Southport BC, Southport Park","state":"qld"},{"postcode":4216,"suburbs":"Biggera Waters, Coombabah, Hollywell, Paradise Point, Runaway Bay, South Stradbroke","state":"qld"},{"postcode":4217,"suburbs":"Benowa, Bundall, Bundall BC, Bundall DC, Chevron Island, Gold Coast MC, Isle Of Capri, Main Beach, Surfers Paradise","state":"qld"},{"postcode":4218,"suburbs":"Broadbeach, Broadbeach Waters, Mermaid Beach, Mermaid Waters, Nobby Beach, Pacific Fair, Q Supercentre","state":"qld"},{"postcode":4220,"suburbs":"Burleigh BC, Burleigh DC, Burleigh Heads, Burleigh Town, Burleigh Waters, Miami","state":"qld"},{"postcode":4221,"suburbs":"Elanora, Palm Beach","state":"qld"},{"postcode":4223,"suburbs":"Currumbin, Currumbin DC, Currumbin Valley, Currumbin Waters","state":"qld"},{"postcode":4224,"suburbs":"Tugun, Tugun Heights","state":"qld"},{"postcode":4225,"suburbs":"Bilinga, Coolangatta","state":"qld"},{"postcode":4226,"suburbs":"Clear Island Waters, Merrimac, Robina, Robina DC","state":"qld"},{"postcode":4227,"suburbs":"Reedy Creek, Varsity Lakes","state":"qld"},{"postcode":4228,"suburbs":"Tallebudgera, Tallebudgera Valley","state":"qld"},{"postcode":4270,"suburbs":"Tamborine","state":"qld"},{"postcode":4272,"suburbs":"Mount Tamborine, North Tamborine, Tamborine Mountain","state":"qld"},{"postcode":4275,"suburbs":"Benobble, Biddaddaba, Boyland, Canungra, Ferny Glen, Flying Fox, Illinbah, Lamington National Park, Sarabah, Witheren, Wonglepong","state":"qld"},{"postcode":4280,"suburbs":"Jimboomba, North Maclean, South Maclean, Stockleigh","state":"qld"},{"postcode":4285,"suburbs":"Allenview, Beaudesert, Birnam, Bromelton, Cainbable, Cedar Grove, Cedar Vale, Chinghee Creek, Christmas Creek, Cryna, Darlington, Gleneagle, Hillview, Innisplain, Josephville, Kagaru, Kerry, Knapp Creek, Kooralbyn, Lamington, Laravale, Mount Gipps, Mundoolun, Nindooinbah, Oaky Creek, Tabooba, Tabragalba, Tamrookum, Tamrookum Creek, Undullah, Veresdale, Veresdale Scrub, Woodhill","state":"qld"},{"postcode":4287,"suburbs":"Barney View, Mount Barney, Mount Lindesay, Palen Creek, Rathdowney, Running Creek","state":"qld"},{"postcode":4300,"suburbs":"Augustine Heights, Bellbird Park, Brookwater, Camira, Carole Park, Gailes, Goodna, Goodna DC, Springfield, Springfield Central, Springfield Lakes","state":"qld"},{"postcode":4301,"suburbs":"Collingwood Park, Redbank, Redbank Plains","state":"qld"},{"postcode":4303,"suburbs":"Dinmore, New Chum, Riverview","state":"qld"},{"postcode":4304,"suburbs":"Blackstone, Booval, Booval BC, Booval DC, Booval Fair, Bundamba, Ebbw Vale, North Booval, Silkstone","state":"qld"},{"postcode":4305,"suburbs":"Basin Pocket, Brassall, Bremer, Churchill, Coalfalls, East Ipswich, Eastern Heights, Flinders View, Ipswich, Leichhardt, Limestone Ridges, Moores Pocket, Newtown, North Ipswich, North Tivoli, One Mile, Raceview, Sadliers Crossing, Tivoli, West Ipswich, Woodend, Wulkuraka, Yamanto","state":"qld"},{"postcode":4306,"suburbs":"Amberley, Avoca Vale, Banks Creek, Barellan Point, Benarkin, Benarkin North, Blackbutt, Blackbutt North, Blackbutt South, Blacksoil, Borallon, Cherry Creek, Chuwar, Colinton, Deebing Heights, Dundas, England Creek, Fairney View, Fernvale, Glamorgan Vale, Googa Creek, Goolman, Haigslea, Harlin, Ironbark, Karalee, Karana Downs, Karrabin, Kholo, Lake Manchester, Lark Hill, Linville, Moore, Mount Binga, Mount Crosby, Mount Marrow, Mount Stanley, Muirlea, Nukku, Peak Crossing, Pine Mountain, Purga, Ripley, South Ripley, Split Yard Creek, Swanbank, Taromeo, Teelah, Thagoona, Vernor, Walloon, Wanora, Washpool, West Amberley, White Rock, Willowbank, Wivenhoe Pocket","state":"qld"},{"postcode":4307,"suburbs":"Coleyville, Harrisville, Mutdapilly, Radford, Silverdale, Warrill View, Wilsons Plains","state":"qld"},{"postcode":4309,"suburbs":"Aratula, Charlwood, Clumber, Fassifern, Fassifern Valley, Frazerview, Kalbar, Kents Lagoon, Kulgun, Milora, Moogerah, Morwincha, Mount Edwards, Munbilla, Obum Obum, Tarome, Teviotville","state":"qld"},{"postcode":4310,"suburbs":"Allandale, Anthony, Blantyre, Boonah, Bunburra, Bunjurgen, Burnett Creek, Cannon Creek, Carneys Creek, Coochin, Coulson, Croftby, Dugandan, Frenches Creek, Hoya, Kents Pocket, Maroon, Milbong, Milford, Mount Alford, Mount French, Roadvale, Templin, Wallaces Creek, Woolooman, Wyaralong","state":"qld"},{"postcode":4311,"suburbs":"Atkinsons Dam, Brightview, Buaraba, Buaraba South, Churchable, Clarendon, Coolana, Coominya, Lockyer Waters, Lowood, Minden, Mount Tarampa, Patrick Estate, Prenzlau, Rifle Range, Tarampa, Wivenhoe Hill","state":"qld"},{"postcode":4312,"suburbs":"Bryden, Caboonbah, Coal Creek, Crossdale, Esk, Eskdale, Glen Esk, Moombra, Mount Byron, Mount Hallen, Murrumba, Redbank Creek, Somerset Dam","state":"qld"},{"postcode":4313,"suburbs":"Biarra, Braemore, Cooeeimbardi, Cressbrook, Fulham, Gregors Creek, Ivory Creek, Lower Cressbrook, Mount Beppo, Ottaba, Scrub Creek, Toogoolawah, Yimbun","state":"qld"},{"postcode":4314,"state":"qld"},{"postcode":4340,"suburbs":"Ashwell, Calvert, Ebenezer, Grandchester, Jeebropilly, Lanefield, Lower Mount Walker, Merryvale, Moorang, Mount Forbes, Mount Mort, Mount Walker, Mount Walker West, Rosevale, Rosewood, Tallegalla, The Bluff, Woolshed","state":"qld"},{"postcode":4341,"suburbs":"Blenheim, Hatton Vale, Kensington Grove, Kentville, Laidley, Laidley Creek West, Laidley Heights, Laidley North, Laidley South, Mount Berryman, Mulgowie, Plainland, Regency Downs, Summerholm, Thornton, Townson","state":"qld"},{"postcode":4342,"suburbs":"Crowley Vale, Forest Hill, Glen Cairn, Glenore Grove, Lockrose, Lynford","state":"qld"},{"postcode":4343,"suburbs":"Adare, Black Duck Creek, Caffey, College View, East Haldon, Fordsdale, Gatton, Ingoldsby, Junction View, Lake Clarendon, Lawes, Lefthand Branch, Lower Tenthill, Morton Vale, Mount Sylvia, Placid Hills, Ringwood, Rockside, Ropeley, Spring Creek, Upper Tenthill, Vinegar Hill, Woodbine, Woodlands","state":"qld"},{"postcode":4344,"suburbs":"Carpendale, Egypt, Flagstone Creek, Helidon, Helidon Spa, Iredale, Lilydale, Lockyer, Rockmount, Seventeen Mile, Stockyard, Upper Flagstone","state":"qld"},{"postcode":4346,"suburbs":"Marburg","state":"qld"},{"postcode":4347,"suburbs":"Grantham, Ma Ma Creek, Mount Whitestone, Veradilla, Winwill","state":"qld"},{"postcode":4350,"suburbs":"Athol, Blue Mountain Heights, Centenary Heights, Charlton, Clifford Gardens, Cotswold Hills, Cranley, Darling Heights, Drayton, Drayton North, East Toowoomba, Finnie, Glenvale, Gowrie Mountain, Harlaxton, Harristown, Kearneys Spring, Middle Ridge, Mount Kynoch, Mount Lofty, Mount Rascal, Newtown, North Toowoomba, Northlands, Prince Henry Heights, Rangeville, Redwood, Rockville, South Toowoomba, Southtown, Toowoomba, Toowoomba BC, Toowoomba City, Toowoomba DC, Toowoomba East, Toowoomba South, Toowoomba Village Fair, Toowoomba West, Top Camp, Torrington, Wellcamp, Westbrook, Wilsonton, Wilsonton Heights, Wyalla Plaza","state":"qld"},{"postcode":4352,"suburbs":"Ballard, Bapaume, Birnam, Blanchview, Branchview, Cabarlah, Cawdor, Cement Mills, Coalbank, Condamine Plains, Cutella, Derrymore, Djuan, Doctor Creek, Evergreen, Fifteen Mile, Geham, Glencoe, Gore, Gowrie Junction, Gowrie Little Plain, Grapetree, Groomsville, Hampton, Highfields, Highgrove, Hodgson Vale, Karara, Kleinton, Kulpi, Kurrowah, Lilyvale, Maclagan, Malling, Meringandan, Meringandan West, Merritts Creek, Mount Luke, Muniganeen, Murphys Creek, Narko, North Maclagan, Nutgrove, Oman Ama, Palmtree, Pampas, Pechey, Peranga, Perseverance, Postmans Ridge, Pozieres, Preston, Rangemore, Ravensbourne, Silver Ridge, Spring Bluff, St Aubyn, Thornville, Toowoomba MC, Tummaville, Umbiram, Upper Lockyer, Vale View, Whichello, White Mountain, Withcott, Woodleigh, Woolmer, Wutul, Wyreema, Yalangur, Yandilla","state":"qld"},{"postcode":4353,"suburbs":"Bergen, East Cooyar, Haden","state":"qld"},{"postcode":4354,"suburbs":"Douglas, Goombungee, Kilbirnie","state":"qld"},{"postcode":4355,"suburbs":"Anduramba, Cressbrook Creek, Crows Nest, Emu Creek, Glenaven, Jones Gully, Mountain Camp, Pierces Creek, Pinelands, Plainby, The Bluff, Upper Pinelands","state":"qld"},{"postcode":4356,"suburbs":"Bongeen, Broxburn, Evanslea, Irongate, Kincora, Linthorpe, Motley, Mount Tyson, North Branch, Norwin, Pittsworth, Purrawunda, Rossvale, Scrubby Mountain, Springside, St Helens, Stoneleigh, Yarranlea","state":"qld"},{"postcode":4357,"suburbs":"Bringalily, Bulli Creek, Canning Creek, Captains Mountain, Clontarf, Condamine Farms, Cypress Gardens, Domville, Forest Ridge, Grays Gate, Kooroongarra, Lavelle, Lemontree, Millmerran, Millmerran Downs, Millmerran Woods, Millwood, Mount Emlyn, Punchs Creek, Rocky Creek, Stonehenge, The Pines, Turallin, Wattle Ridge, Western Creek, Woondul","state":"qld"},{"postcode":4358,"suburbs":"Cambooya, Felton, Felton South, Ramsay","state":"qld"},{"postcode":4359,"suburbs":"Budgee, East Greenmount, Greenmount, Hirstglen, West Haldon","state":"qld"},{"postcode":4360,"suburbs":"Nobby","state":"qld"},{"postcode":4361,"suburbs":"Back Plains, Clifton, Ellangowan, Elphinstone, Headington Hill, Kings Creek, Manapouri, Missen Flat, Mount Molar, Nevilton, Pilton, Ryeford, Sandy Camp, Spring Creek, Upper Pilton, Victoria Hill","state":"qld"},{"postcode":4362,"suburbs":"Allora, Berat, Deuchar, Ellinthorp, Goomburra, Hendon, Mount Marshall, Talgai","state":"qld"},{"postcode":4363,"suburbs":"Southbrook","state":"qld"},{"postcode":4364,"suburbs":"Brookstead","state":"qld"},{"postcode":4365,"suburbs":"Leyburn","state":"qld"},{"postcode":4370,"suburbs":"Allan, Bony Mountain, Canningvale, Cherry Gully, Clintonvale, Cunningham, Danderoo, Elbow Valley, Freestone, Gladfield, Glengallan, Greymare, Junabee, Leslie, Leslie Dam, Loch Lomond, Maryvale, Massie, Montrose, Morgan Park, Mount Colliery, Mount Sturt, Mount Tabor, Murrays Bridge, North Branch, Pratten, Rodgers Creek, Rosehill, Rosenthal Heights, Silverwood, Sladevale, Swan Creek, Thane, Thanes Creek, The Glen, The Hermitage, Toolburra, Tregony, Upper Freestone, Upper Wheatvale, Warwick, Warwick DC, Wheatvale, Wildash, Willowvale, Wiyarra, Womina","state":"qld"},{"postcode":4371,"suburbs":"Emu Vale, Swanfels, Yangan","state":"qld"},{"postcode":4373,"suburbs":"Killarney, The Falls, The Head","state":"qld"},{"postcode":4374,"suburbs":"Dalveen","state":"qld"},{"postcode":4376,"suburbs":"Thulimbah","state":"qld"},{"postcode":4378,"suburbs":"Applethorpe","state":"qld"},{"postcode":4381,"suburbs":"Glen Aplin","state":"qld"},{"postcode":4382,"suburbs":"Ballandean, Girraween, Lyra, Somme, Wyberba","state":"qld"},{"postcode":4387,"suburbs":"Brush Creek, Bybera, Coolmunda, Greenup, Inglewood, Mosquito Creek, Terrica, Warroo, Whetstone","state":"qld"},{"postcode":4388,"suburbs":"Kurumbul, Yelarbon","state":"qld"},{"postcode":4390,"suburbs":"Billa Billa, Calingunee, Callandoon, Goodar, Goondiwindi, Kindon, Lundavra, Wondalli, Wyaga, Yagaburne","state":"qld"},{"postcode":4400,"suburbs":"Kingsthorpe","state":"qld"},{"postcode":4401,"suburbs":"Acland, Aubigny, Balgowan, Biddeston, Boodua, Devon Park, Greenwood, Highland Plains, Kelvinhaugh, Mount Irving, Muldu, Oakey, Rosalie Plains, Sabine, Silverleigh, Yargullen","state":"qld"},{"postcode":4403,"suburbs":"Brymaroo, Jondaryan, Malu, Mount Moriah, Quinalow, West Prairie","state":"qld"},{"postcode":4404,"suburbs":"Bowenville, Formartin, Irvingdale, Wainui","state":"qld"},{"postcode":4405,"suburbs":"Blaxland, Bunya Mountains, Dalby, Ducklo, Grassdale, Marmadua, Pirrinuan, Ranges Bridge, St Ruth, Tipton, Weranga","state":"qld"},{"postcode":4406,"suburbs":"Boondandilla, Hannaford, Jimbour, Kaimkillenbun, Kogan, Macalister, Moonie, Southwood, The Gums, Weir River","state":"qld"},{"postcode":4407,"suburbs":"Cattle Creek, Cecil Plains, Dunmore, Nangwee","state":"qld"},{"postcode":4408,"suburbs":"Bell","state":"qld"},{"postcode":4410,"suburbs":"Jandowae","state":"qld"},{"postcode":4411,"suburbs":"Warra","state":"qld"},{"postcode":4413,"suburbs":"Baking Board, Boonarga, Burncluith, Canaga, Chances Plain, Chinchilla, Durah, Hopeland, Montrose, Wieambilla","state":"qld"},{"postcode":4415,"suburbs":"Columboola, Dalwogon, Gurulmundi, Hookswood, Kowguran, Miles, Myall Park, Pelham","state":"qld"},{"postcode":4416,"suburbs":"Barramornie, Condamine, Moraby, Nangram, Pine Hills, Sunnyside, Yulabilla","state":"qld"},{"postcode":4417,"suburbs":"Noorindoo, Oberina, Parknook, Surat, Warkon, Wellesley, Weribone","state":"qld"},{"postcode":4419,"suburbs":"Cockatoo, Grosmont, Wandoan","state":"qld"},{"postcode":4420,"suburbs":"Broadmere, Coorada, Ghinghinda, Glenhaughton, Gwambegwine, Hornet Bank, Peek-A-Doo, Spring Creek, Taroom","state":"qld"},{"postcode":4421,"suburbs":"Goranba, Tara","state":"qld"},{"postcode":4422,"suburbs":"Coomrith, Flinton, Inglestone, Meandarra, Westmar","state":"qld"},{"postcode":4425,"suburbs":"Bogandilla, Dulacca","state":"qld"},{"postcode":4427,"suburbs":"Clifford, Yuleba, Yuleba North, Yuleba South","state":"qld"},{"postcode":4428,"suburbs":"Pickanjinnie, Wallumbilla, Wallumbilla North, Wallumbilla South","state":"qld"},{"postcode":4454,"suburbs":"Baffle West, Beilba, Durham Downs, Highland Plains, Hutton Creek, Injune, Mount Hutton, Pony Hills, Simmie, Upper Dawson, Westgrove","state":"qld"},{"postcode":4455,"suburbs":"Ballaroo, Blythdale, Bungeworgorai, Bungil, Bymount, Cornwall, Dargal Road, Eumamurrin, Euthulla, Gunnewin, Hodgson, Mooga, Mount Abundance, Mount Bindango, Orallo, Orange Hill, Roma, Tingun, Wycombe","state":"qld"},{"postcode":4465,"suburbs":"Dunkeld, Forestvale, Mitchell, V Gate, Womalilla","state":"qld"},{"postcode":4468,"suburbs":"Clara Creek, Morven","state":"qld"},{"postcode":4470,"suburbs":"Bakers Bend, Charleville, Gowrie Station, Langlo, Murweh, Riversleigh","state":"qld"},{"postcode":4472,"suburbs":"Blackall, Mount Enniskillen","state":"qld"},{"postcode":4477,"suburbs":"Augathella, Upper Warrego","state":"qld"},{"postcode":4478,"suburbs":"Bayrick, Caldervale, Lansdowne, Lumeah, Macfarlane, Minnie Downs, Scrubby Creek, Tambo, Windeyer, Yandarlo","state":"qld"},{"postcode":4480,"suburbs":"Eromanga, Quilpie","state":"qld"},{"postcode":4481,"suburbs":"Farrars Creek, Tanbar, Windorah","state":"qld"},{"postcode":4482,"suburbs":"Birdsville","state":"qld"},{"postcode":4486,"suburbs":"Dirranbandi, Hebel","state":"qld"},{"postcode":4487,"suburbs":"Begonia, St George","state":"qld"},{"postcode":4488,"suburbs":"Bollon, Nebine","state":"qld"},{"postcode":4490,"suburbs":"Barringun, Coongoola, Cunnamulla, Cuttaburra, Humeburn, Jobs Gate, Linden, Noorama, Tuen, Widgeegoara, Yowah","state":"qld"},{"postcode":4492,"suburbs":"Bullawarra, Bulloo Downs, Dynevor, Nockatunga, Norley, Thargomindah","state":"qld"},{"postcode":4494,"suburbs":"Bungunya, North Bungunya, Tarawera","state":"qld"},{"postcode":4496,"suburbs":"North Talwood, South Talwood, Talwood","state":"qld"},{"postcode":4497,"suburbs":"Daymar, Thallon, Weengallon","state":"qld"},{"postcode":4500,"suburbs":"Bray Park, Brendale, Brendale BC, Brendale DC, Cashmere, Clear Mountain, Joyner, Strathpine, Strathpine Centre, Warner","state":"qld"},{"postcode":4501,"suburbs":"Lawnton","state":"qld"},{"postcode":4502,"suburbs":"Petrie","state":"qld"},{"postcode":4503,"suburbs":"Dakabin, Griffin, Kallangur, Kurwongbah, Murrumba Downs, Whiteside","state":"qld"},{"postcode":4504,"suburbs":"Narangba","state":"qld"},{"postcode":4505,"suburbs":"Burpengary, Burpengary DC","state":"qld"},{"postcode":4506,"suburbs":"Moorina, Morayfield","state":"qld"},{"postcode":4507,"suburbs":"Banksia Beach, Bellara, Bongaree, Bribie Island, Bribie Island North, Welsby, White Patch, Woorim","state":"qld"},{"postcode":4508,"suburbs":"Deception Bay","state":"qld"},{"postcode":4509,"suburbs":"Mango Hill, North Lakes","state":"qld"},{"postcode":4510,"suburbs":"Beachmere, Bellmere, Caboolture, Caboolture BC, Caboolture South, Donnybrook, Meldale, Moodlu, Rocksberg, Toorbul, Upper Caboolture","state":"qld"},{"postcode":4511,"suburbs":"Godwin Beach, Ningi, Sandstone Point","state":"qld"},{"postcode":4512,"suburbs":"Bracalba, Wamuran, Wamuran Basin","state":"qld"},{"postcode":4514,"suburbs":"Bellthorpe, Cedarton, Commissioners Flat, D\\Aguilar, Delaneys Creek, Mount Archer, Mount Delaney, Neurum, Stanmore, Stony Creek, Villeneuve, Woodford","state":"qld"},{"postcode":4515,"suburbs":"Glenfern, Hazeldean, Jimna, Kilcoy, Kingaham, Monsildale, Mount Kilcoy, Royston, Sandy Creek, Sheep Station Creek, Winya, Woolmar","state":"qld"},{"postcode":4516,"suburbs":"Elimbah","state":"qld"},{"postcode":4517,"suburbs":"Beerburrum","state":"qld"},{"postcode":4518,"suburbs":"Glass House Mountains","state":"qld"},{"postcode":4519,"suburbs":"Beerwah, Coochin Creek, Crohamhurst, Peachester","state":"qld"},{"postcode":4520,"suburbs":"Armstrong Creek, Camp Mountain, Cedar Creek, Closeburn, Draper, Enoggera Reservoir, Highvale, Jollys Lookout, Kobble Creek, Mount Glorious, Mount Nebo, Mount Samson, Samford, Samford Valley, Samford Village, Samsonvale, Wights Mountain, Yugar","state":"qld"},{"postcode":4521,"suburbs":"Campbells Pocket, Dayboro, King Scrub, Laceys Creek, Mount Mee, Mount Pleasant, Ocean View, Rush Creek","state":"qld"},{"postcode":4550,"suburbs":"Landsborough, Mount Mellum","state":"qld"},{"postcode":4551,"suburbs":"Aroona, Battery Hill, Bells Creek, Caloundra, Caloundra BC, Caloundra DC, Caloundra West, Currimundi, Dicky Beach, Golden Beach, Kings Beach, Little Mountain, Meridan Plains, Moffat Beach, Pelican Waters, Shelly Beach","state":"qld"},{"postcode":4552,"suburbs":"Bald Knob, Balmoral Ridge, Booroobin, Cambroon, Conondale, Crystal Waters, Curramore, Elaman Creek, Harper Creek, Maleny, North Maleny, Reesville, Witta, Wootha","state":"qld"},{"postcode":4553,"suburbs":"Diamond Valley, Glenview, Mooloolah, Mooloolah Valley, Palmview","state":"qld"},{"postcode":4554,"suburbs":"Eudlo, Ilkley","state":"qld"},{"postcode":4555,"suburbs":"Chevallum, Hunchy, Landers Shoot, Palmwoods","state":"qld"},{"postcode":4556,"suburbs":"Buderim, Forest Glen, Kunda Park, Mons, Sippy Downs, Tanawha","state":"qld"},{"postcode":4557,"suburbs":"Mooloolaba, Mountain Creek","state":"qld"},{"postcode":4558,"suburbs":"Cotton Tree, Kuluin, Maroochydore, Maroochydore BC, Maroochydore DC, Sunshine Plaza","state":"qld"},{"postcode":4559,"suburbs":"Diddillibah, Kiels Mountain, West Woombye, Woombye","state":"qld"},{"postcode":4560,"suburbs":"Bli Bli, Burnside, Coes Creek, Cooloolabin, Dulong, Flaxton, Highworth, Image Flat, Kiamba, Kulangoor, Kureelpa, Mapleton, Montville, Nambour, Nambour BC, Nambour DC, Nambour West, Parklands, Perwillowen, Rosemount, Sunshine Coast MC, Towen Mountain","state":"qld"},{"postcode":4561,"suburbs":"Bridges, Maroochy River, Ninderry, North Arm, Valdora, Yandina, Yandina Creek","state":"qld"},{"postcode":4562,"suburbs":"Belli Park, Doonan, Eerwah Vale, Eumundi, Verrierdale, Weyba Downs","state":"qld"},{"postcode":4563,"suburbs":"Black Mountain, Carters Ridge, Cooroy, Cooroy Mountain, Lake Macdonald, Ridgewood, Tinbeerwah","state":"qld"},{"postcode":4564,"suburbs":"Marcoola, Mudjimba, Pacific Paradise, Twin Waters","state":"qld"},{"postcode":4565,"suburbs":"Boreen Point, Cooroibah, Cootharaba, Noosa North Shore, Ringtail Creek, Tewantin","state":"qld"},{"postcode":4566,"suburbs":"Noosaville, Noosaville BC, Noosaville DC","state":"qld"},{"postcode":4567,"suburbs":"Castaways Beach, Noosa Heads, Sunrise Beach, Sunshine Beach","state":"qld"},{"postcode":4568,"suburbs":"Federal, Pinbarren, Pomona","state":"qld"},{"postcode":4569,"suburbs":"Cooran","state":"qld"},{"postcode":4570,"suburbs":"Amamoor, Amamoor Creek, Anderleigh, Araluen, Banks Pocket, Beenaam Valley, Bella Creek, Bells Bridge, Bollier, Brooloo, Calgoa, Calico Creek, Canina, Cedar Pocket, Chatsworth, Coles Creek, Coondoo, Corella, Curra, Dagun, Downsfield, East Deep Creek, Fishermans Pocket, Gilldora, Glanmire, Glastonbury, Glen Echo, Glenwood, Goomboorian, Greens Creek, Gunalda, Gympie, Gympie DC, Imbil, Jones Hill, Kandanga, Kandanga Creek, Kanigan, Kia Ora, Kybong, Lagoon Pocket, Lake Borumba, Langshaw, Long Flat, Lower Wonga, Marodian, Marys Creek, Mcintosh Creek, Melawondi, Miva, Monkland, Mooloo, Mothar Mountain, Munna Creek, Nahrunda, Neerdie, Neusa Vale, North Deep Creek, Paterson, Pie Creek, Ross Creek, Scotchy Pocket, Scrubby Creek, Sexton, Southside, Tamaree, Tandur, The Dawn, The Palms, Theebine, Toolara Forest, Traveston, Tuchekoi, Two Mile, Upper Glastonbury, Upper Kandanga, Veteran, Victory Heights, Wallu, Widgee, Widgee Crossing North, Widgee Crossing South, Wilsons Pocket, Wolvi, Woolooga, Woondum","state":"qld"},{"postcode":4571,"suburbs":"Como, Kin Kin","state":"qld"},{"postcode":4572,"suburbs":"Alexandra Headland","state":"qld"},{"postcode":4573,"suburbs":"Coolum Beach, Marcus Beach, Mount Coolum, Peregian Beach, Peregian Beach South, Peregian Springs, Point Arkwright, Yaroomba","state":"qld"},{"postcode":4574,"suburbs":"Coolabine, Gheerulla, Kenilworth, Kidaman Creek, Moy Pocket, Obi Obi","state":"qld"},{"postcode":4575,"suburbs":"Birtinya, Bokarina, Buddina, Minyama, Parrearra, Warana, Wurtulla","state":"qld"},{"postcode":4580,"suburbs":"Cooloola, Cooloola Cove, Tin Can Bay","state":"qld"},{"postcode":4581,"suburbs":"Eurong, Fraser Island, Inskip, Orchid Beach, Rainbow Beach","state":"qld"},{"postcode":4600,"suburbs":"Black Snake, Cinnabar, Kilkivan, Mudlo, Oakview","state":"qld"},{"postcode":4601,"suburbs":"Barambah, Boonara, Booubyjan, Goomeri, Goomeribong, Kinbombi, Manumbar, Tansey, Wrattens Forest","state":"qld"},{"postcode":4605,"suburbs":"Barlil, Byee, Cherbourg, Cloyna, Cobbs Hill, Crownthorpe, Glenrock, Kitoba, Manyung, Merlwood, Moffatdale, Moondooner, Murgon, Oakdale, Redgate, Silverleaf, Sunny Nook, Tablelands, Warnung, Windera, Wooroonden","state":"qld"},{"postcode":4606,"suburbs":"Chelmsford, Fairdale, Ficks Crossing, Greenview, Leafdale, Mount Mceuen, Mp Creek, Wheatlands, Wondai","state":"qld"},{"postcode":4608,"suburbs":"Charlestown, Cushnie, Tingoora, Wilkesdale, Wooroolin","state":"qld"},{"postcode":4610,"suburbs":"Alice Creek, Ballogie, Benair, Booie, Boonenne, Boyneside, Chahpingah, Coolabunia, Corndale, Crawford, Dangore, Durong, Durong South, Ellesmere, Goodger, Gordonbrook, Haly Creek, Hodgleigh, Inverlaw, Ironpot, Kingaroy, Kingaroy DC, Kumbia, Mannuem, Memerambi, Taabinga, Taabinga Village, Wattle Grove","state":"qld"},{"postcode":4613,"suburbs":"Abbeywood, Boondooma, Brigooda, Coverty, Kinleymore, Melrose, Okeden, Proston, Speedwell, Stalworth","state":"qld"},{"postcode":4614,"suburbs":"Neumgna, Upper Yarraman, Yarraman","state":"qld"},{"postcode":4615,"suburbs":"Barker Creek Flat, Brooklands, Bullcamp, East Nanango, Elgin Vale, Glan Devon, Johnstown, Kunioon, Maidenwell, Nanango, Pimpimbudgee, Runnymede, Sandy Ridges, South East Nanango, South Nanango, Tarong, Wattle Camp, Wengenville, Wyalla","state":"qld"},{"postcode":4620,"suburbs":"Aramara, Brooweena, Doongul, Gigoomgan, Glenbar, Gungaloon, Malarga, North Aramara, Teebar, Woocoo","state":"qld"},{"postcode":4621,"suburbs":"Biggenden, Boompa, Coalstoun Lakes, Coringa, Dallarnil, Degilbo, Didcot, Golden Fleece, Lakeside, Wateranga, Woowoonga","state":"qld"},{"postcode":4625,"suburbs":"Aranbanga, Ban Ban, Ban Ban Springs, Barlyne, Binjour, Blairmore, Bon Accord, Branch Creek, Byrnestown, Campbell Creek, Deep Creek, Dirnbir, Dundarrah, Gayndah, Ginoondan, Gooroolba, Harriet, Humphery, Ideraway, Mingo, Mount Debateable, Mount Lawless, Mount Steadman, Penwhaupell, Pile Gully, Reids Creek, Stockhaven, The Limits, Toondahra, Wahoon, Wetheron, Wilson Valley, Woodmillar, Yenda","state":"qld"},{"postcode":4626,"suburbs":"Beeron, Boynewood, Brovinia, Cattle Creek, Coonambula, Derri Derra, Dykehead, Glenrae, Gurgeena, Hawkwood, Monogorilby, Mundowran, Mundubbera, O\\Bil Bil, Old Cooranga, Philpott, Riverleigh","state":"qld"},{"postcode":4627,"suburbs":"Abercorn, Ceratodus, Cheltenham, Cynthia, Eidsvold, Eidsvold East, Eidsvold West, Grosvenor, Malmoe, Wuruma Dam","state":"qld"},{"postcode":4630,"suburbs":"Bancroft, Bukali, Cania, Cannindah, Coominglah, Coominglah Forest, Dalga, Glenleigh, Harrami, Kalpowar, Kapaldo, Langley, Monal, Monto, Moonford, Mulgildie, Mungungo, Rawbelle, Selene, Splinter Creek, Tellebang, Three Moon, Ventnor, Yarrol","state":"qld"},{"postcode":4650,"suburbs":"Aldershot, Antigua, Bauple, Bauple Forest, Beaver Rock, Bidwill, Boonooroo, Boonooroo Plains, Duckinwilla, Dundathu, Dunmora, Ferney, Glenorchy, Gootchie, Grahams Creek, Granville, Gundiah, Island Plantation, Maaroom, Magnolia, Maryborough, Maryborough DC, Maryborough West, Mount Urah, Mungar, Netherby, Oakhurst, Owanyilla, Pallas Street Maryborough, Pilerwa, Pioneers Rest, Poona, Prawle, St Helens, St Mary, Talegalla Weir, Tandora, Teddington, The Dimonds, Thinoomba, Tiaro, Tinana, Tinana South, Tinnanbar, Tuan, Tuan Forest, Walkers Point, Yengarie, Yerra","state":"qld"},{"postcode":4655,"suburbs":"Booral, Bunya Creek, Craignish, Dundowran, Dundowran Beach, Eli Waters, Great Sandy Strait, Happy Valley, Hervey Bay, Hervey Bay DC, Kawungan, Kingfisher Bay Resort, Nikenbah, Pialba, Point Vernon, River Heads, Scarness, Sunshine Acres, Susan River, Takura, Toogoom, Torquay, Urangan, Urraween, Walliebum, Walligan, Wondunna","state":"qld"},{"postcode":4659,"suburbs":"Beelbi Creek, Burgowan, Burrum, Burrum Heads, Burrum River, Burrum Town, Howard, Pacific Haven","state":"qld"},{"postcode":4660,"suburbs":"Abington, Apple Tree Creek, Buxton, Cherwell, Childers, Cordalba, Doolbi, Eureka, Farnsfield, Goodwood, Gregory River, Horton, Isis Central, Isis River, Kullogum, North Gregory, North Isis, Promisedland, Redridge, South Isis, Woodgate","state":"qld"},{"postcode":4662,"suburbs":"Torbanlea","state":"qld"},{"postcode":4670,"suburbs":"Abbotsford, Alloway, Ashfield, Avenell Heights, Avoca, Avondale, Bargara, Branyan, Bucca, Bundaberg, Bundaberg Central, Bundaberg DC, Bundaberg East, Bundaberg North, Bundaberg South, Bundaberg West, Burnett Heads, Calavos, Coonarr, Coral Cove, Electra, Elliott, Elliott Heads, Fairymead, Givelda, Gooburrum, Innes Park, Kalkie, Kensington, Kepnock, Kinkuna, Meadowvale, Millbank, Mon Repos, Moore Park Beach, Moorland, Mullett Creek, Norville, Oakwood, Pine Creek, Qunaba, Rubyanna, Sharon, South Bingera, South Kolan, Svensson Heights, Thabeban, Walkervale, Watalgan, Welcome Creek, Windermere, Winfield, Woongarra","state":"qld"},{"postcode":4671,"suburbs":"Boolboonda, Booyal, Bullyard, Bungadoo, Dalysford, Damascus, Delan, Doughboy, Drinan, Duingal, Gaeta, Gin Gin, Good Night, Horse Camp, Kolonga, Lake Monduran, Maroondan, Mcilwraith, Molangul, Monduran, Moolboolaman, Morganville, Mount Perry, Mungy, Nearum, New Moonta, Redhill Farms, Skyring Reserve, St Agnes, St Kilda, Takilberan, Tirroan, Wallaville, Wonbah, Wonbah Forest","state":"qld"},{"postcode":4673,"suburbs":"Miara, Waterloo, Yandaran","state":"qld"},{"postcode":4674,"suburbs":"Baffle Creek, Berajondo, Deepwater, Euleilah, Mount Maria, Oyster Creek, Rosedale, Rules Beach, Taunton","state":"qld"},{"postcode":4677,"suburbs":"Agnes Water, Captain Creek, Colosseum, Eurimbula, Miriam Vale, Mount Tom, Round Hill, Seventeen Seventy","state":"qld"},{"postcode":4678,"suburbs":"Bororen, Foreshores, Rodds Bay, Turkey Beach","state":"qld"},{"postcode":4680,"suburbs":"Barney Point, Beecher, Benaraby, Boyne Island, Boyne Valley, Boynedale, Builyan, Burua, Byellee, Callemondah, Calliope, Clinton, Curtis Island, Diglum, Gladstone, Gladstone BC, Gladstone DC, Gladstone South, Gladstone-City, Glen Eden, Heron Island, Iveragh, Kin Kora, Kirkwood, Many Peaks, Mount Alma, New Auckland, O\\Connell, River Ranch, South End, South Gladstone, South Trees, Sun Valley, Tablelands, Tannum Sands, Taragoola, Telina, Toolooa, Ubobo, West Gladstone, West Stowe, Wooderson, Wurdong Heights","state":"qld"},{"postcode":4694,"suburbs":"Aldoga, Targinie, Yarwun","state":"qld"},{"postcode":4695,"suburbs":"Ambrose, Bracewell, Darts Creek, East End, Machine Creek, Mount Larcom, The Narrows","state":"qld"},{"postcode":4699,"suburbs":"Bajool, Port Alma","state":"qld"},{"postcode":4700,"suburbs":"Allenstown, Depot Hill, Fairy Bower, Great Keppel Island, Port Curtis, Rockhampton, Rockhampton City, Rockhampton Hospital, The Keppels, The Range, Wandal, West Rockhampton","state":"qld"},{"postcode":4701,"suburbs":"Berserker, Central Queensland University, Frenchville, Greenlake, Ironpot, Kawana, Koongal, Lakes Creek, Limestone Creek, Mount Archer, Nankin, Nerimbera, Norman Gardens, North Rockhampton, Park Avenue, Red Hill Rockhampton, Rockhampton DC, Rockhampton North, Rockyview, Sandringham, The Common","state":"qld"},{"postcode":4702,"suburbs":"Alberta, Alsace, Alton Downs, Anakie, Argoon, Balcomba, Banana, Baralaba, Barnard, Bingegang, Blackdown, Bluff, Boolburra, Bouldercombe, Bushley, Canal Creek, Canoona, Cawarral, Central Queensland MC, Comet, Consuelo, Coomoo, Coorooman, Coorumbene, Coowonga, Dalma, Dingo, Dixalea, Dululu, Dumpy Creek, Etna Creek, Fernlees, Gainsford, Garnant, Gindie, Glenroy, Gogango, Goomally, Goovigen, Goowarra, Gracemere, Jambin, Jardine, Jellinbah, Joskeleigh, Kabra, Kalapa, Keppel Sands, Kokotungo, Kunwarara, Lowesby, Mackenzie, Marmor, Midgee, Milman, Mimosa, Moonmera, Morinish, Morinish South, Mount Chalmers, Nine Mile, Parkhurst, Pheasant Creek, Pink Lily, Plum Tree, Ridgelands, Rolleston, Rossmoya, Rubyvale, Sapphire, Shoalwater, Smoky Creek, South Yaamba, Stanage, Stanwell, Stewarton, The Caves, Thompson Point, Tungamull, Ulogie, Wallaroo, Westwood, Willows, Willows Gemfields, Woolein, Wooroona, Wowan, Wycarbah, Yaraka","state":"qld"},{"postcode":4703,"suburbs":"Adelaide Park, Bangalee, Barlows Hill, Barmaryee, Barmoya, Bondoola, Bungundarra, Byfield, Causeway Lake, Cobraball, Cooee Bay, Farnborough, Hidden Valley, Inverness, Kinka Beach, Lake Mary, Lammermoor, Maryvale, Meikleville Hill, Mulambin, Mulara, Pacific Heights, Rosslyn, Stockyard, Tanby, Taranganba, Taroomball, Weerriba, Woodbury, Yeppoon","state":"qld"},{"postcode":4705,"suburbs":"Clarke Creek, Lotus Creek, Mackenzie River, Marlborough, Mount Gardiner","state":"qld"},{"postcode":4707,"suburbs":"Collaroy, St Lawrence, The Percy Group","state":"qld"},{"postcode":4709,"suburbs":"Tieri","state":"qld"},{"postcode":4710,"suburbs":"Emu Park, Zilzie","state":"qld"},{"postcode":4711,"suburbs":"Glendale, Glenlee","state":"qld"},{"postcode":4712,"suburbs":"Duaringa","state":"qld"},{"postcode":4713,"suburbs":"Woorabinda","state":"qld"},{"postcode":4714,"suburbs":"Baree, Boulder Creek, Fletcher Creek, Hamilton Creek, Horse Creek, Johnsons Hill, Leydens Hill, Limestone, Moongan, Mount Morgan, Nine Mile Creek, Oakey Creek, Struck Oil, The Mine, Trotter Creek, Walmul, Walterhall, Wura","state":"qld"},{"postcode":4715,"suburbs":"Biloela, Callide, Castle Creek, Dakenba, Dumgree, Greycliffe, Mount Murchison, Orange Creek, Prospect, Tarramba, Valentine Plains","state":"qld"},{"postcode":4716,"suburbs":"Lawgi Dawes, Thangool","state":"qld"},{"postcode":4717,"suburbs":"Blackwater","state":"qld"},{"postcode":4718,"suburbs":"Bauhinia, Dromedary, Kianga, Moura, Mungabunda, Oombabeer, Rhydding, Roundstone, Warnoah","state":"qld"},{"postcode":4719,"suburbs":"Camboon, Cracow, Glenmoral, Isla, Lonesome Creek, Theodore","state":"qld"},{"postcode":4720,"suburbs":"Emerald, Yamala","state":"qld"},{"postcode":4721,"suburbs":"Argyll, Clermont, Frankfield, Gemini Mountains, Kilcummin, Pasha, Theresa Creek, Wolfang","state":"qld"},{"postcode":4722,"suburbs":"Buckland, Cairdbeign, Cona Creek, Nandowrie, Orion, Springsure, Wealwandangie","state":"qld"},{"postcode":4723,"suburbs":"Belcong, Capella, Carbine Creek, Chirnside, Crinum, Hibernia, Khosh Bulduk, Lilyvale, Lowestoff, Mount Macarthur, Retro","state":"qld"},{"postcode":4724,"suburbs":"Alpha, Beaufort, Drummondslope, Hobartville, Pine Hill, Port Wine, Sedgeford, Surbiton","state":"qld"},{"postcode":4725,"suburbs":"Barcaldine, Barcaldine Downs, Patrick, Tara Station","state":"qld"},{"postcode":4726,"suburbs":"Aramac, Pelican Creek","state":"qld"},{"postcode":4727,"suburbs":"Ilfracombe","state":"qld"},{"postcode":4728,"suburbs":"Dunrobin, Garfield, Jericho, Mexico","state":"qld"},{"postcode":4730,"suburbs":"Camoola, Chorregon, Ernestina, Longreach, Maneroo, Morella, Stonehenge, Tocal, Vergemont","state":"qld"},{"postcode":4732,"suburbs":"Muttaburra, Tablederry","state":"qld"},{"postcode":4735,"suburbs":"Diamantina Lakes, Middleton, Opalton, Winton","state":"qld"},{"postcode":4737,"suburbs":"Armstrong Beach, Blue Mountain, Campwin Beach, Freshwater Point, Sarina, Sarina Beach, Sarina Range, Sunnyside","state":"qld"},{"postcode":4738,"suburbs":"Ilbilbie, Koumala","state":"qld"},{"postcode":4739,"suburbs":"Carmila","state":"qld"},{"postcode":4740,"suburbs":"Alexandra, Alligator Creek, Andergrove, Bakers Creek, Balberra, Balnagowan, Beaconsfield, Belmunda, Blacks Beach, Cape Hillsborough, Chelona, Cremorne, Dolphin Heads, Dumbleton, Dundula, Dunnrock, East Mackay, Eimeo, Erakala, Foulden, Glenella, Grasstree Beach, Habana, Haliday Bay, Hay Point, Homebush, Mackay, Mackay BC, Mackay Caneland, Mackay DC, Mackay Harbour, Mackay North, Mackay South, Mackay West, Mcewens Beach, Mount Jukes, Mount Pleasant, Munbura, Nindaroo, North Mackay, Ooralea, Paget, Racecourse, Richmond, Rosella, Rural View, Sandiford, Slade Point, South Mackay, Te Kowai, The Leap, West Mackay","state":"qld"},{"postcode":4741,"suburbs":"Ball Bay, Brightly, Clairview, Coppabella, Daydream Island, Epsom, Eton, Eton North, Eungella Hinterland, Farleigh, Gargett, Hampden, Hazledean, Hook Island, Kalarka, Kinchant Dam, Kuttabul, Lindeman Island, Long Island, Mackay MC, Mount Charlton, Mount Ossa, Mount Pelion, North Eton, Oakenden, Orkabie, Owens Creek, Pinnacle, Pleystowe, Seaforth, South Molle, Yalboroo","state":"qld"},{"postcode":4742,"suburbs":"Burton, Eaglefield, Elphinstone, Hail Creek, Kemmis, Mount Britton, Nebo, Oxford, Strathfield, Turrawulla, Valkyrie","state":"qld"},{"postcode":4743,"suburbs":"Glenden, Suttor","state":"qld"},{"postcode":4744,"suburbs":"Moranbah","state":"qld"},{"postcode":4745,"suburbs":"Dysart","state":"qld"},{"postcode":4746,"suburbs":"May Downs, Middlemount","state":"qld"},{"postcode":4750,"suburbs":"Bucasia, Shoal Point","state":"qld"},{"postcode":4751,"suburbs":"Greenmount, Palmyra, Victoria Plains, Walkerston","state":"qld"},{"postcode":4753,"suburbs":"Devereux Creek, Marian","state":"qld"},{"postcode":4754,"suburbs":"Benholme, Dows Creek, Mia Mia, Mirani, Mount Martin, Pinevale, Septimus","state":"qld"},{"postcode":4756,"suburbs":"Finch Hatton, Netherdale","state":"qld"},{"postcode":4757,"suburbs":"Broken River, Crediton, Dalrymple Heights, Eungella, Eungella Dam","state":"qld"},{"postcode":4798,"suburbs":"Calen, Mentmore, Pindi Pindi, St Helens Beach","state":"qld"},{"postcode":4799,"suburbs":"Bloomsbury, Midge Point","state":"qld"},{"postcode":4800,"suburbs":"Andromache, Brandy Creek, Breadalbane, Cannon Valley, Cape Conway, Cape Gloucester, Conway, Conway Beach, Crystal Brook, Dingo Beach, Dittmer, Foxdale, Glen Isla, Goorganga Creek, Goorganga Plains, Gregory River, Gunyarra, Hamilton Plains, Hideaway Bay, Kelsey Creek, Laguna Quays, Lake Proserpine, Lethebrook, Mount Julian, Mount Marlow, Mount Pluto, Myrtlevale, North Gregory, Palm Grove, Pauls Pocket, Preston, Proserpine, Riordanvale, Silver Creek, Strathdickie, Sugarloaf, Thoopara, Wilson Beach","state":"qld"},{"postcode":4802,"suburbs":"Airlie Beach, Cannonvale, Flametree, Jubilee Pocket, Mandalay, Mount Rooper, Shute Harbour, Whitsundays, Woodwark","state":"qld"},{"postcode":4804,"suburbs":"Collinsville, Mount Coolon, Mount Wyatt, Newlands, Springlands","state":"qld"},{"postcode":4805,"suburbs":"Binbee, Bogie, Bowen, Brisk Bay, Delta, Gumlu, Guthalungra, Merinda, Queens Beach","state":"qld"},{"postcode":4806,"suburbs":"Carstairs, Fredericksfield, Home Hill, Inkerman, Kirknie, Osborne, Rangemore, Wangaratta, Wunjunga","state":"qld"},{"postcode":4807,"suburbs":"Airdmillan, Airville, Alva, Ayr, Clare, Claredale, Dalbeg, Eight Mile Creek, Jarvisfield, Mcdesme, Millaroo, Mona Park, Mount Kelly, Mulgrave, Rita Island, Swans Lagoon","state":"qld"},{"postcode":4808,"suburbs":"Brandon, Colevale","state":"qld"},{"postcode":4809,"suburbs":"Barratta, Cromarty, Giru, Horseshoe Lagoon, Jerona, Mount Surround, Shirbourne, Upper Haughton","state":"qld"},{"postcode":4810,"suburbs":"Belgian Gardens, Cape Cleveland, Castle Hill, North Ward, Pallarenda, Railway Estate, Rowes Bay, Shelly Beach, South Townsville, Town Common, Townsville, Townsville City, Townsville DC, Townsville MC, West End","state":"qld"},{"postcode":4811,"suburbs":"Cluden, Idalia, James Cook University, Mount Stuart, Oak Valley, Oonoonba, Roseneath, Stuart, Wulguru","state":"qld"},{"postcode":4812,"suburbs":"Currajong, Gulliver, Hermit Park, Hyde Park, Hyde Park Castletown, Mundingburra, Mysterton, Pimlico, Rosslea","state":"qld"},{"postcode":4814,"suburbs":"Aitkenvale, Aitkenvale BC, Annandale, Cranbrook, Douglas, Garbutt, Garbutt BC, Garbutt East, Heatley, Mount Louisa, Murray, Thuringowa DC, Vincent","state":"qld"},{"postcode":4815,"suburbs":"Condon, Granite Vale, Gumlow, Kelso, Pinnacles, Rasmussen","state":"qld"},{"postcode":4816,"suburbs":"Alligator Creek, Balgal Beach, Barringha, Brookhill, Buchanan, Calcium, Carruchan, Clemant, Crimea, Crystal Creek, Cungulla, Ellerbeck, Greenvale, Hidden Valley, Homestead, Julago, Kennedy, Macrossan, Majors Creek, Malpas-Trenton, Mingela, Mount Elliot, Mutarnee, Nelia, Nome, Palm Island, Paluma, Pentland, Prairie, Ravenswood, Reid River, Rollingstone, Ross River, Savannah, Sellheim, The Cape, Toomulla, Toonpan, Torrens Creek, Woodstock","state":"qld"},{"postcode":4817,"suburbs":"Alice River, Bohle Plains, Hervey Range, Kirwan, Rangewood, Thuringowa Central","state":"qld"},{"postcode":4818,"suburbs":"Beach Holm, Black River, Blue Hills, Bluewater, Bluewater Park, Bohle, Burdell, Bushland Beach, Cosgrove, Deeragun, Jensen, Lynam, Mount Low, Mount St John, Saunders Beach, Shaw, Toolakea, Yabulu","state":"qld"},{"postcode":4819,"suburbs":"Arcadia, Florence Bay, Horseshoe Bay, Magnetic Island, Nelly Bay, Picnic Bay, West Point","state":"qld"},{"postcode":4820,"suburbs":"Alabama Hill, Balfes Creek, Basalt, Black Jack, Breddan, Broughton, Campaspe, Charters Towers, Columbia, Dotswood, Grand Secret, Lissner, Llanarth, Millchester, Mosman Park, Queenton, Richmond Hill, Seventy Mile, Southern Cross, Toll, Towers Hill","state":"qld"},{"postcode":4821,"suburbs":"Dutton River, Hughenden, Porcupine, Stamford, Tangorin","state":"qld"},{"postcode":4822,"suburbs":"Albion, Bellfield, Burleigh, Cambridge, Maxwelton, Nonda, Richmond, Saxby, Victoria Vale, Woolgar","state":"qld"},{"postcode":4823,"suburbs":"Carpentaria, Julia Creek, Kynuna, Mckinlay, Stokes, Taldora, Warburton","state":"qld"},{"postcode":4824,"suburbs":"Cloncurry, Four Ways, Gidya, Kuridala, Oorindi, Three Rivers","state":"qld"},{"postcode":4828,"suburbs":"Camooweal","state":"qld"},{"postcode":4829,"suburbs":"Amaroo, Bedourie, Boulia, Min Min, Sturt, Toko, Warenda, Wills","state":"qld"},{"postcode":4830,"suburbs":"Burketown, Doomadgee, Gregory, Gregory Downs, Nicholson","state":"qld"},{"postcode":4849,"suburbs":"Cardwell, Damper Creek, Hinchinbrook, Lumholtz, Rungoo","state":"qld"},{"postcode":4850,"suburbs":"Abergowrie, Allingham, Bambaroo, Bemerside, Blackrock, Braemeadows, Coolbie, Cordelia, Dalrymple Creek, Foresthome, Forrest Beach, Gairloch, Garrawalt, Halifax, Hawkins Creek, Helens Hill, Ingham, Lannercost, Long Pocket, Lucinda, Macknade, Mount Fox, Orient, Peacock Siding, Taylors Beach, Toobanna, Trebonne, Upper Stone, Valley Of Lagoons, Victoria Estate, Victoria Plantation, Wallaman, Wharps, Yuruga","state":"qld"},{"postcode":4852,"suburbs":"Bingil Bay, Carmoo, Djiru, Dunk, Garners Beach, Midgeree Bar, Mission Beach, South Mission Beach, Tam O\\Shanter, Wongaling Beach","state":"qld"},{"postcode":4854,"suburbs":"Bilyana, Birkalla, Bulgun, Cardstone, Dingo Pocket, Djarawong, East Feluga, Euramo, Feluga, Hull Heads, Jarra Creek, Kooroomool, Lower Tully, Merryburn, Midgenoo, Mount Mackay, Munro Plains, Murray Upper, Murrigal, Rockingham, Silky Oak, Tully, Tully Heads, Walter Hill, Warrami","state":"qld"},{"postcode":4855,"suburbs":"Daveson, El Arish, Friday Pocket, Granadilla, Jaffa, Maadi, Maria Creeks, Shell Pocket","state":"qld"},{"postcode":4856,"suburbs":"Goolboo, Japoonvale, Mccutcheon, No 4 Branch, No 5 Branch, Silkwood, Walter Lever Estate","state":"qld"},{"postcode":4858,"suburbs":"Comoon Loop, Etty Bay, Martyville, Mourilyan, Mourilyan Harbour, New Harbourline","state":"qld"},{"postcode":4859,"suburbs":"No 6 Branch, South Johnstone","state":"qld"},{"postcode":4860,"suburbs":"Bamboo Creek, Belvedere, Coconuts, Cooroo Lands, Coorumba, Coquette Point, Cullinane, Daradgee, East Innisfail, East Palmerston, Eaton, Eubenangee, Fitzgerald Creek, Flying Fish Point, Garradunga, Goondi, Goondi Bend, Goondi Hill, Hudson, Innisfail, Innisfail Estate, Jubilee Heights, Mighell, Mundoo, Nerada, Ngatjan, O\\Briens Hill, Palmerston, Pin Gin Hill, South Innisfail, Stoters Hill, Sundown, Upper Daradgee, Vasa Views, Wanjuru, Webb, Wooroonooran","state":"qld"},{"postcode":4861,"suburbs":"Babinda, Bartle Frere, East Russell","state":"qld"},{"postcode":4865,"suburbs":"Goldsborough, Gordonvale, Green Hill, Kamma, Little Mulgrave, Packers Camp","state":"qld"},{"postcode":4868,"suburbs":"Bayview Heights, Mount Sheridan, White Rock, Woree","state":"qld"},{"postcode":4869,"suburbs":"Bentley Park, Edmonton, Mount Peter, Wrights Creek","state":"qld"},{"postcode":4870,"suburbs":"Aeroglen, Barron Gorge, Brinsmead, Bungalow, Cairns, Cairns Central, Cairns City, Cairns DC, Cairns MC, Cairns North, Cairns Orchid Plaza, Earlville, Earlville BC, Edge Hill, Freshwater, Kamerunga, Kanimbla, Lamb Range, Manoora, Manunda, Martynvale, Mooroobool, North Cairns, Parramatta Park, Portsmith, Redlynch, Stratford, Westcourt, Whitfield","state":"qld"},{"postcode":4871,"suburbs":"Abingdon Downs, Almaden, Aloomba, Amber, Arbouin, Archer River, Aurukun, Basilisk, Bellenden Ker, Bellevue, Blackbull, Bolwarra, Bombeeta, Boogan, Bramston Beach, Bulleringa, Camp Creek, Chillagoe, Claraville, Coen, Conjuboy, Coralie, Cowley, Cowley Beach, Cowley Creek, Croydon, Crystalbrook, Currajah, Deeral, Desailly, Dixie, East Creek, East Trinity, Edward River, Einasleigh, Esmeralda, Fishery Falls, Fitzroy Island, Forsayth, Fossilbrook, Gamboola, Georgetown, Germantown, Gilbert River, Glen Boughton, Green Island, Groganville, Gununa, Highbury, Holroyd River, Hurricane, Julatten, Karron, Kowanyama, Kurrimine Beach, Lakefield, Lakeland, Lakeland Downs, Laura, Lizard, Lockhart, Lower Cowley, Lyndhurst, Lyndside, Macalister Range, Maramie, Mena Creek, Miriwinni, Moresby, Mornington Island, Mount Carbine, Mount Molloy, Mount Mulgrave, Mount Mulligan, Mount Surprise, Northhead, Nychum, Palmer, Petford, Pormpuraaw, Portland Roads, Ravensworth, Red River, Rookwood, Sandy Pocket, South Wellesley Islands, Southedge, Springfield, Staaten, Stockton, Strathmore, Talaroo, Thornborough, Utchee Creek, Wangan, Warrubullen, Waugh Pocket, Wellesley Islands, West Wellesley Islands, Woopen Creek, Wrotham, Yagoonya, Yarrabah, Yarraden","state":"qld"},{"postcode":4872,"suburbs":"Barrine, Barwidgi, Cairns MC, Danbulla, Dimbulah, Forty Mile, Glen Ruth, Gunnawarra, Innot Hot Springs, Kairi, Kirrama, Koombooloomba, Kowrowa, Lake Tinaroo, Minnamoolka, Mount Garnet, Munderra, Mutchilba, Silver Valley, Tinaroo, Wairuna, Walkamin","state":"qld"},{"postcode":4873,"suburbs":"Bamboo, Bonnie Doon, Cape Tribulation, Cassowary, Cooya Beach, Cow Bay, Dagmar, Daintree, Dedin, Diwan, Finlay Vale, Forest Creek, Kimberley, Low Isles, Lower Daintree, Miallo, Mossman, Mossman Gorge, Newell, Noah, Rocky Point, Shannonvale, Spurgeon, Stewart Creek Valley, Syndicate, Thornton Beach, Upper Daintree, Whyanbeel, Wonga","state":"qld"},{"postcode":4874,"suburbs":"Evans Landing, Jardine River, Mapoon, Mission River, Nanum, Napranum, Rocky Point, Shelburne, Trunding, Weipa, Weipa Airport, Wenlock","state":"qld"},{"postcode":4875,"suburbs":"Badu Island, Banks Island, Boigu Island, Coconut Island, Darnley Island, Dauan Island, Erub, Horn Island, Jervis Island, Kubin Village, Mabuiag Island, Moa Island, Mulgrave Island, Murray Island, Saibai Island, Stephens Island, Talbot Island, Thursday Island, Warraber Island, Yam Island, Yorke Island","state":"qld"},{"postcode":4876,"suburbs":"Bamaga, Injinoo, New Mapoon, Seisia, Umagico","state":"qld"},{"postcode":4877,"suburbs":"Craiglie, Killaloe, Mowbray, Oak Beach, Port Douglas, Wangetti","state":"qld"},{"postcode":4878,"suburbs":"Barron, Caravonica, Holloways Beach, Machans Beach, Smithfield, Yorkeys Knob","state":"qld"},{"postcode":4879,"suburbs":"Clifton Beach, Ellis Beach, Kewarra Beach, Palm Cove, Trinity Beach, Trinity Park","state":"qld"},{"postcode":4880,"suburbs":"Arriga, Biboohra, Chewko, Glen Russell, Mareeba, Paddys Green","state":"qld"},{"postcode":4881,"suburbs":"Koah, Kuranda, Mona Mona, Speewah","state":"qld"},{"postcode":4882,"suburbs":"Tolga","state":"qld"},{"postcode":4883,"suburbs":"Atherton, Carrington, East Barron, Upper Barron, Wongabel","state":"qld"},{"postcode":4884,"suburbs":"Gadgarra, Lake Barrine, Lake Eacham, Yungaburra","state":"qld"},{"postcode":4885,"suburbs":"Butchers Creek, Glen Allyn, Jaggan, Kureen, Malanda, North Johnstone, Peeramon, Tarzali, Topaz","state":"qld"},{"postcode":4886,"suburbs":"Beatrice, Ellinjaa, Maalan, Middlebrook, Millaa Millaa, Minbun, Moregatta, Mungalli","state":"qld"},{"postcode":4887,"suburbs":"Herberton, Irvinebank, Kalunga, Moomin, Watsonville, Wondecla","state":"qld"},{"postcode":4888,"suburbs":"Evelyn, Kaban, Millstream, Ravenshoe, Tumoulin","state":"qld"},{"postcode":4890,"suburbs":"Howitt, Norman, Normanton","state":"qld"},{"postcode":4891,"suburbs":"Karumba","state":"qld"},{"postcode":4892,"state":"qld"},{"postcode":4895,"suburbs":"Ayton, Bloomfield, Cooktown, Degarra, Endeavour Falls, Helenvale, Hope Vale, Rossville, Starcke, Wujal Wujal","state":"qld"},{"postcode":2406,"suburbs":"Mungindi, Mungindi, Weemelah","state":"qld"},{"postcode":4375,"suburbs":"Cottonvale, Fleurbaix","state":"qld"},{"postcode":4377,"suburbs":"Glen Niven, Maryland, The Summit","state":"qld"},{"postcode":4383,"suburbs":"Jennings, Wallangarra","state":"qld"},{"postcode":4385,"suburbs":"Beebo, Bonshaw, Camp Creek, Glenarbon, Maidenhead, Riverton, Silver Spur, Smithlea, Texas, Texas, Watsons Crossing","state":"qld"},{"postcode":4380,"suburbs":"Amiens, Broadwater, Cannon Creek, Dalcouth, Eukey, Glenlyon, Greenlands, Kyoomba, Mingoola, Mount Tully, Nundubbermere, Pikedale, Pikes Creek, Severnlea, Springdale, Stanthorpe, Storm King, Sugarloaf, Thorndale","state":"qld"},{"postcode":4825,"suburbs":"Alexandria, Alpurrurulam, Barkly, Breakaway, Buckingham, Carrandotta, Dajarra, Duchess, Fielding, Fisher, Georgina, Gunpowder, Happy Valley, Healy, Kalkadoon, Lanskey, Lawn Hill, Menzies, Mica Creek, Miles End, Mornington, Mount Isa, Mount Isa City, Mount Isa DC, Mount Isa East, Parkside, Pioneer, Piturie, Ranken, Ryan, Soldiers Hill, Spreadborough, Sunset, The Gap, The Monument, Townview, Waverley, Winston","state":"qld"},{"postcode":2000,"suburbs":"Barangaroo, Dawes Point, Haymarket, Millers Point, Parliament House, Sydney, Sydney South, The Rocks","state":"nsw"},{"postcode":2006,"suburbs":"The University Of Sydney","state":"nsw"},{"postcode":2007,"suburbs":"Broadway, Ultimo","state":"nsw"},{"postcode":2008,"suburbs":"Chippendale, Darlington","state":"nsw"},{"postcode":2009,"suburbs":"Pyrmont","state":"nsw"},{"postcode":2010,"suburbs":"Darlinghurst, Surry Hills","state":"nsw"},{"postcode":2011,"suburbs":"Elizabeth Bay, Hmas Kuttabul, Potts Point, Rushcutters Bay, Woolloomooloo","state":"nsw"},{"postcode":2015,"suburbs":"Alexandria, Beaconsfield, Eveleigh","state":"nsw"},{"postcode":2016,"suburbs":"Redfern","state":"nsw"},{"postcode":2017,"suburbs":"Waterloo, Zetland","state":"nsw"},{"postcode":2018,"suburbs":"Eastlakes, Rosebery","state":"nsw"},{"postcode":2019,"suburbs":"Banksmeadow, Botany","state":"nsw"},{"postcode":2020,"suburbs":"Mascot, Sydney Domestic Airport, Sydney International Airport","state":"nsw"},{"postcode":2021,"suburbs":"Centennial Park, Moore Park, Paddington","state":"nsw"},{"postcode":2022,"suburbs":"Bondi Junction, Bondi Junction Plaza, Queens Park","state":"nsw"},{"postcode":2023,"suburbs":"Bellevue Hill","state":"nsw"},{"postcode":2024,"suburbs":"Bronte, Waverley","state":"nsw"},{"postcode":2025,"suburbs":"Woollahra","state":"nsw"},{"postcode":2026,"suburbs":"Bondi, Bondi Beach, North Bondi, Tamarama","state":"nsw"},{"postcode":2027,"suburbs":"Darling Point, Edgecliff, Hmas Rushcutters, Point Piper","state":"nsw"},{"postcode":2028,"suburbs":"Double Bay","state":"nsw"},{"postcode":2029,"suburbs":"Rose Bay","state":"nsw"},{"postcode":2030,"suburbs":"Dover Heights, Hmas Watson, Rose Bay North, Vaucluse, Watsons Bay","state":"nsw"},{"postcode":2031,"suburbs":"Clovelly, Clovelly West, Randwick, St Pauls","state":"nsw"},{"postcode":2032,"suburbs":"Daceyville, Kingsford","state":"nsw"},{"postcode":2033,"suburbs":"Kensington","state":"nsw"},{"postcode":2034,"suburbs":"Coogee, South Coogee","state":"nsw"},{"postcode":2035,"suburbs":"Maroubra, Maroubra South, Pagewood","state":"nsw"},{"postcode":2036,"suburbs":"Chifley, Eastgardens, Hillsdale, La Perouse, Little Bay, Malabar, Matraville, Phillip Bay, Port Botany","state":"nsw"},{"postcode":2037,"suburbs":"Forest Lodge, Glebe","state":"nsw"},{"postcode":2038,"suburbs":"Annandale","state":"nsw"},{"postcode":2039,"suburbs":"Rozelle","state":"nsw"},{"postcode":2040,"suburbs":"Leichhardt, Lilyfield","state":"nsw"},{"postcode":2041,"suburbs":"Balmain, Balmain East, Birchgrove","state":"nsw"},{"postcode":2042,"suburbs":"Enmore, Newtown","state":"nsw"},{"postcode":2043,"suburbs":"Erskineville","state":"nsw"},{"postcode":2044,"suburbs":"St Peters, Sydenham, Tempe","state":"nsw"},{"postcode":2045,"suburbs":"Haberfield","state":"nsw"},{"postcode":2046,"suburbs":"Abbotsford, Canada Bay, Chiswick, Five Dock, Rodd Point, Russell Lea, Wareemba","state":"nsw"},{"postcode":2047,"suburbs":"Drummoyne","state":"nsw"},{"postcode":2048,"suburbs":"Stanmore, Westgate","state":"nsw"},{"postcode":2049,"suburbs":"Lewisham, Petersham, Petersham North","state":"nsw"},{"postcode":2050,"suburbs":"Camperdown, Missenden Road","state":"nsw"},{"postcode":2052,"suburbs":"Unsw Sydney","state":"nsw"},{"postcode":2060,"suburbs":"Hmas Platypus, Hmas Waterhen, Lavender Bay, Mcmahons Point, North Sydney, North Sydney Shoppingworld, Waverton","state":"nsw"},{"postcode":2061,"suburbs":"Kirribilli, Milsons Point","state":"nsw"},{"postcode":2062,"suburbs":"Cammeray","state":"nsw"},{"postcode":2063,"suburbs":"Northbridge","state":"nsw"},{"postcode":2064,"suburbs":"Artarmon","state":"nsw"},{"postcode":2065,"suburbs":"Crows Nest, Greenwich, Naremburn, Royal North Shore Hospital, St Leonards, Wollstonecraft","state":"nsw"},{"postcode":2066,"suburbs":"Lane Cove, Lane Cove North, Lane Cove West, Linley Point, Longueville, Northwood, Riverview","state":"nsw"},{"postcode":2067,"suburbs":"Chatswood, Chatswood West","state":"nsw"},{"postcode":2068,"suburbs":"Castlecrag, Middle Cove, North Willoughby, Willoughby, Willoughby East, Willoughby North","state":"nsw"},{"postcode":2069,"suburbs":"Castle Cove, Roseville, Roseville Chase","state":"nsw"},{"postcode":2070,"suburbs":"East Lindfield, Lindfield, Lindfield West","state":"nsw"},{"postcode":2071,"suburbs":"East Killara, Killara","state":"nsw"},{"postcode":2072,"suburbs":"Gordon","state":"nsw"},{"postcode":2073,"suburbs":"Pymble, West Pymble","state":"nsw"},{"postcode":2074,"suburbs":"North Turramurra, South Turramurra, Turramurra, Warrawee","state":"nsw"},{"postcode":2075,"suburbs":"St Ives, St Ives Chase","state":"nsw"},{"postcode":2076,"suburbs":"Normanhurst, North Wahroonga, Wahroonga","state":"nsw"},{"postcode":2077,"suburbs":"Asquith, Hornsby, Hornsby Heights, Waitara","state":"nsw"},{"postcode":2079,"suburbs":"Mount Colah","state":"nsw"},{"postcode":2080,"suburbs":"Mount Kuring-Gai","state":"nsw"},{"postcode":2081,"suburbs":"Berowra, Cowan","state":"nsw"},{"postcode":2082,"suburbs":"Berowra Creek, Berowra Heights, Berowra Waters","state":"nsw"},{"postcode":2083,"suburbs":"Bar Point, Brooklyn, Cheero Point, Cogra Bay, Dangar Island, Milsons Passage, Mooney Mooney","state":"nsw"},{"postcode":2084,"suburbs":"Cottage Point, Duffys Forest, Terrey Hills","state":"nsw"},{"postcode":2085,"suburbs":"Belrose, Belrose West, Davidson","state":"nsw"},{"postcode":2086,"suburbs":"Frenchs Forest, Frenchs Forest East","state":"nsw"},{"postcode":2087,"suburbs":"Forestville, Killarney Heights","state":"nsw"},{"postcode":2088,"suburbs":"Mosman, Spit Junction","state":"nsw"},{"postcode":2089,"suburbs":"Neutral Bay, Neutral Bay Junction","state":"nsw"},{"postcode":2090,"suburbs":"Cremorne, Cremorne Junction, Cremorne Point","state":"nsw"},{"postcode":2092,"suburbs":"Seaforth","state":"nsw"},{"postcode":2093,"suburbs":"Balgowlah, Balgowlah Heights, Clontarf, Manly Vale, North Balgowlah","state":"nsw"},{"postcode":2094,"suburbs":"Fairlight","state":"nsw"},{"postcode":2095,"suburbs":"Manly, Manly East","state":"nsw"},{"postcode":2096,"suburbs":"Curl Curl, Freshwater, Queenscliff","state":"nsw"},{"postcode":2097,"suburbs":"Collaroy, Collaroy Beach, Collaroy Plateau West, Wheeler Heights","state":"nsw"},{"postcode":2099,"suburbs":"Cromer, Dee Why, Narraweena, North Curl Curl","state":"nsw"},{"postcode":2100,"suburbs":"Allambie Heights, Beacon Hill, Brookvale, North Manly, Oxford Falls, Warringah Mall","state":"nsw"},{"postcode":2101,"suburbs":"Elanora Heights, Ingleside, Narrabeen, North Narrabeen","state":"nsw"},{"postcode":2102,"suburbs":"Warriewood, Warriewood Shopping Square","state":"nsw"},{"postcode":2103,"suburbs":"Mona Vale","state":"nsw"},{"postcode":2104,"suburbs":"Bayview","state":"nsw"},{"postcode":2105,"suburbs":"Church Point, Elvina Bay, Lovett Bay, Morning Bay, Scotland Island","state":"nsw"},{"postcode":2106,"suburbs":"Newport, Newport Beach","state":"nsw"},{"postcode":2107,"suburbs":"Avalon, Avalon Beach, Bilgola, Clareville, Whale Beach","state":"nsw"},{"postcode":2108,"suburbs":"Coasters Retreat, Great Mackerel Beach, Palm Beach","state":"nsw"},{"postcode":2109,"suburbs":"Macquarie University","state":"nsw"},{"postcode":2110,"suburbs":"Hunters Hill, Woolwich","state":"nsw"},{"postcode":2111,"suburbs":"Boronia Park, Gladesville, Henley, Huntleys Cove, Huntleys Point, Monash Park, Tennyson Point","state":"nsw"},{"postcode":2112,"suburbs":"Denistone East, Putney, Ryde","state":"nsw"},{"postcode":2113,"suburbs":"Blenheim Road, East Ryde, Macquarie Centre, Macquarie Park, North Ryde","state":"nsw"},{"postcode":2114,"suburbs":"Denistone, Denistone West, Meadowbank, Melrose Park, West Ryde","state":"nsw"},{"postcode":2115,"suburbs":"Ermington","state":"nsw"},{"postcode":2116,"suburbs":"Rydalmere","state":"nsw"},{"postcode":2117,"suburbs":"Dundas, Dundas Valley, Oatlands, Telopea","state":"nsw"},{"postcode":2118,"suburbs":"Carlingford, Carlingford Court, Carlingford North, Kingsdene","state":"nsw"},{"postcode":2119,"suburbs":"Beecroft, Cheltenham","state":"nsw"},{"postcode":2120,"suburbs":"Pennant Hills, Thornleigh, Westleigh","state":"nsw"},{"postcode":2121,"suburbs":"Epping, North Epping","state":"nsw"},{"postcode":2122,"suburbs":"Eastwood, Marsfield","state":"nsw"},{"postcode":2123,"suburbs":"Parramatta","state":"nsw"},{"postcode":2125,"suburbs":"West Pennant Hills","state":"nsw"},{"postcode":2126,"suburbs":"Cherrybrook","state":"nsw"},{"postcode":2127,"suburbs":"Newington, Sydney Olympic Park, Wentworth Point","state":"nsw"},{"postcode":2128,"suburbs":"Silverwater","state":"nsw"},{"postcode":2129,"suburbs":"Sydney Markets","state":"nsw"},{"postcode":2130,"suburbs":"Summer Hill","state":"nsw"},{"postcode":2131,"suburbs":"Ashfield","state":"nsw"},{"postcode":2132,"suburbs":"Croydon","state":"nsw"},{"postcode":2133,"suburbs":"Croydon Park, Enfield South","state":"nsw"},{"postcode":2134,"suburbs":"Burwood, Burwood North","state":"nsw"},{"postcode":2135,"suburbs":"Strathfield","state":"nsw"},{"postcode":2136,"suburbs":"Burwood Heights, Enfield, Strathfield South","state":"nsw"},{"postcode":2137,"suburbs":"Breakfast Point, Cabarita, Concord, Mortlake, North Strathfield","state":"nsw"},{"postcode":2138,"suburbs":"Concord West, Liberty Grove, Rhodes","state":"nsw"},{"postcode":2139,"suburbs":"Concord Repatriation Hospital","state":"nsw"},{"postcode":2140,"suburbs":"Homebush, Homebush South, Homebush West","state":"nsw"},{"postcode":2141,"suburbs":"Berala, Lidcombe, Lidcombe North, Rookwood","state":"nsw"},{"postcode":2142,"suburbs":"Blaxcell, Camellia, Clyde, Granville, Holroyd, Rosehill, South Granville","state":"nsw"},{"postcode":2143,"suburbs":"Birrong, Potts Hill, Regents Park","state":"nsw"},{"postcode":2144,"suburbs":"Auburn","state":"nsw"},{"postcode":2145,"suburbs":"Constitution Hill, Girraween, Greystanes, Mays Hill, Pemulwuy, Pendle Hill, South Wentworthville, Wentworthville, Westmead","state":"nsw"},{"postcode":2146,"suburbs":"Old Toongabbie, Toongabbie, Toongabbie East","state":"nsw"},{"postcode":2147,"suburbs":"Kings Langley, Lalor Park, Seven Hills, Seven Hills West","state":"nsw"},{"postcode":2148,"suburbs":"Arndell Park, Blacktown, Blacktown Westpoint, Huntingwood, Kings Park, Marayong, Prospect","state":"nsw"},{"postcode":2150,"suburbs":"Harris Park, Parramatta, Parramatta Westfield","state":"nsw"},{"postcode":2151,"suburbs":"North Parramatta, North Rocks","state":"nsw"},{"postcode":2152,"suburbs":"Northmead","state":"nsw"},{"postcode":2153,"suburbs":"Baulkham Hills, Bella Vista, Winston Hills","state":"nsw"},{"postcode":2154,"suburbs":"Castle Hill","state":"nsw"},{"postcode":2155,"suburbs":"Beaumont Hills, Kellyville, Kellyville Ridge, Rouse Hill","state":"nsw"},{"postcode":2156,"suburbs":"Annangrove, Glenhaven, Kenthurst","state":"nsw"},{"postcode":2157,"suburbs":"Canoelands, Forest Glen, Glenorie","state":"nsw"},{"postcode":2158,"suburbs":"Dural, Middle Dural, Round Corner","state":"nsw"},{"postcode":2159,"suburbs":"Arcadia, Berrilee, Fiddletown, Galston","state":"nsw"},{"postcode":2160,"suburbs":"Merrylands, Merrylands West","state":"nsw"},{"postcode":2161,"suburbs":"Guildford, Guildford West, Old Guildford, Yennora","state":"nsw"},{"postcode":2162,"suburbs":"Chester Hill, Sefton","state":"nsw"},{"postcode":2163,"suburbs":"Carramar, Lansdowne, Villawood","state":"nsw"},{"postcode":2164,"suburbs":"Smithfield, Smithfield West, Wetherill Park, Woodpark","state":"nsw"},{"postcode":2165,"suburbs":"Fairfield, Fairfield East, Fairfield Heights, Fairfield West","state":"nsw"},{"postcode":2166,"suburbs":"Cabramatta, Cabramatta West, Canley Heights, Canley Vale, Lansvale","state":"nsw"},{"postcode":2167,"suburbs":"Glenfield","state":"nsw"},{"postcode":2168,"suburbs":"Ashcroft, Busby, Cartwright, Green Valley, Heckenberg, Hinchinbrook, Miller, Sadleir","state":"nsw"},{"postcode":2170,"suburbs":"Casula, Casula Mall, Chipping Norton, Hammondville, Liverpool, Liverpool South, Liverpool Westfield, Lurnea, Moorebank, Mount Pritchard, Prestons, Warwick Farm","state":"nsw"},{"postcode":2171,"suburbs":"Cecil Hills, Elizabeth Hills, Horningsea Park, Hoxton Park, Len Waters Estate, Middleton Grange, West Hoxton","state":"nsw"},{"postcode":2172,"suburbs":"Pleasure Point, Sandy Point, Voyager Point","state":"nsw"},{"postcode":2173,"suburbs":"Holsworthy, Wattle Grove","state":"nsw"},{"postcode":2174,"suburbs":"Edmondson Park, Ingleburn Milpo","state":"nsw"},{"postcode":2175,"suburbs":"Horsley Park","state":"nsw"},{"postcode":2176,"suburbs":"Abbotsbury, Bossley Park, Edensor Park, Greenfield Park, Prairiewood, St Johns Park, Wakeley","state":"nsw"},{"postcode":2177,"suburbs":"Bonnyrigg, Bonnyrigg Heights","state":"nsw"},{"postcode":2178,"suburbs":"Cecil Park, Kemps Creek, Mount Vernon","state":"nsw"},{"postcode":2179,"suburbs":"Austral, Leppington","state":"nsw"},{"postcode":2190,"suburbs":"Chullora, Greenacre, Mount Lewis","state":"nsw"},{"postcode":2191,"suburbs":"Belfield","state":"nsw"},{"postcode":2192,"suburbs":"Belmore","state":"nsw"},{"postcode":2193,"suburbs":"Ashbury, Canterbury, Hurlstone Park","state":"nsw"},{"postcode":2194,"suburbs":"Campsie","state":"nsw"},{"postcode":2195,"suburbs":"Lakemba, Wiley Park","state":"nsw"},{"postcode":2196,"suburbs":"Punchbowl, Roselands","state":"nsw"},{"postcode":2197,"suburbs":"Bass Hill","state":"nsw"},{"postcode":2198,"suburbs":"Georges Hall","state":"nsw"},{"postcode":2199,"suburbs":"Yagoona, Yagoona West","state":"nsw"},{"postcode":2200,"suburbs":"Bankstown, Bankstown Aerodrome, Bankstown North, Bankstown Square, Condell Park, Manahan, Mount Lewis","state":"nsw"},{"postcode":2203,"suburbs":"Dulwich Hill","state":"nsw"},{"postcode":2204,"suburbs":"Marrickville, Marrickville Metro, Marrickville South","state":"nsw"},{"postcode":2205,"suburbs":"Arncliffe, Turrella, Wolli Creek","state":"nsw"},{"postcode":2206,"suburbs":"Clemton Park, Earlwood","state":"nsw"},{"postcode":2207,"suburbs":"Bardwell Park, Bardwell Valley, Bexley, Bexley North, Bexley South","state":"nsw"},{"postcode":2208,"suburbs":"Kingsgrove, Kingsway West","state":"nsw"},{"postcode":2209,"suburbs":"Beverly Hills, Narwee","state":"nsw"},{"postcode":2210,"suburbs":"Lugarno, Peakhurst, Peakhurst Heights, Riverwood","state":"nsw"},{"postcode":2211,"suburbs":"Padstow, Padstow Heights","state":"nsw"},{"postcode":2212,"suburbs":"Revesby, Revesby Heights, Revesby North","state":"nsw"},{"postcode":2213,"suburbs":"East Hills, Panania, Picnic Point","state":"nsw"},{"postcode":2214,"suburbs":"Milperra","state":"nsw"},{"postcode":2216,"suburbs":"Banksia, Brighton-Le-Sands, Kyeemagh, Rockdale","state":"nsw"},{"postcode":2217,"suburbs":"Beverley Park, Kogarah, Kogarah Bay, Monterey, Ramsgate, Ramsgate Beach","state":"nsw"},{"postcode":2218,"suburbs":"Allawah, Carlton","state":"nsw"},{"postcode":2219,"suburbs":"Dolls Point, Sandringham, Sans Souci","state":"nsw"},{"postcode":2220,"suburbs":"Hurstville, Hurstville Grove, Hurstville Westfield","state":"nsw"},{"postcode":2221,"suburbs":"Blakehurst, Carss Park, Connells Point, Kyle Bay, South Hurstville","state":"nsw"},{"postcode":2222,"suburbs":"Penshurst","state":"nsw"},{"postcode":2223,"suburbs":"Mortdale, Oatley","state":"nsw"},{"postcode":2224,"suburbs":"Kangaroo Point, Sylvania, Sylvania Southgate, Sylvania Waters","state":"nsw"},{"postcode":2225,"suburbs":"Oyster Bay","state":"nsw"},{"postcode":2226,"suburbs":"Bonnet Bay, Como, Jannali","state":"nsw"},{"postcode":2227,"suburbs":"Gymea, Gymea Bay","state":"nsw"},{"postcode":2228,"suburbs":"Miranda, Yowie Bay","state":"nsw"},{"postcode":2229,"suburbs":"Caringbah, Caringbah South, Dolans Bay, Lilli Pilli, Port Hacking, Taren Point","state":"nsw"},{"postcode":2230,"suburbs":"Bundeena, Burraneer, Cronulla, Maianbar, Woolooware","state":"nsw"},{"postcode":2231,"suburbs":"Kurnell","state":"nsw"},{"postcode":2232,"suburbs":"Audley, Garie, Grays Point, Kareela, Kirrawee, Loftus, Sutherland, Woronora","state":"nsw"},{"postcode":2233,"suburbs":"Engadine, Heathcote, Waterfall, Woronora Heights, Yarrawarrah","state":"nsw"},{"postcode":2234,"suburbs":"Alfords Point, Bangor, Barden Ridge, Illawong, Lucas Heights, Menai, Menai Central","state":"nsw"},{"postcode":2250,"suburbs":"Bucketty, Calga, Central Mangrove, East Gosford, Erina, Erina Fair, Glenworth Valley, Gosford, Greengrove, Holgate, Kariong, Kulnura, Lisarow, Lower Mangrove, Mangrove Creek, Mangrove Mountain, Matcham, Mooney Mooney Creek, Mount Elliot, Mount White, Narara, Niagara Park, North Gosford, Peats Ridge, Point Clare, Point Frederick, Somersby, Springfield, Tascott, Ten Mile Hollow, Upper Mangrove, Wendoree Park, West Gosford, Wyoming","state":"nsw"},{"postcode":2251,"suburbs":"Avoca Beach, Bensville, Bouddi, Copacabana, Davistown, Green Point, Kincumber, Kincumber South, Macmasters Beach, Picketts Valley, Saratoga, Yattalunga","state":"nsw"},{"postcode":2256,"suburbs":"Blackwall, Horsfield Bay, Koolewong, Little Wobby, Patonga, Pearl Beach, Phegans Bay, Wondabyne, Woy Woy, Woy Woy Bay","state":"nsw"},{"postcode":2257,"suburbs":"Booker Bay, Box Head, Daleys Point, Empire Bay, Ettalong Beach, Hardys Bay, Killcare, Killcare Heights, Pretty Beach, St Huberts Island, Umina Beach, Wagstaffe","state":"nsw"},{"postcode":2258,"suburbs":"Fountaindale, Kangy Angy, Ourimbah, Palm Grove, Palmdale","state":"nsw"},{"postcode":2259,"suburbs":"Alison, Bushells Ridge, Cedar Brush Creek, Chain Valley Bay, Crangan Bay, Dooralong, Durren Durren, Frazer Park, Freemans, Gwandalan, Halloran, Hamlyn Terrace, Jilliby, Kanwal, Kiar, Kingfisher Shores, Lake Munmorah, Lemon Tree, Little Jilliby, Mannering Park, Mardi, Moonee, Point Wolstoncroft, Ravensdale, Rocky Point, Summerland Point, Tacoma, Tacoma South, Tuggerah, Tuggerawong, Wadalba, Wallarah, Warnervale, Watanobbi, Woongarrah, Wybung, Wyee, Wyee Point, Wyong, Wyong Creek, Wyongah, Yarramalong","state":"nsw"},{"postcode":2260,"suburbs":"Erina Heights, Forresters Beach, North Avoca, Terrigal, Wamberal","state":"nsw"},{"postcode":2261,"suburbs":"Bateau Bay, Bay Village, Berkeley Vale, Blue Bay, Chittaway Bay, Chittaway Point, Glenning Valley, Killarney Vale, Long Jetty, Magenta, Shelly Beach, The Entrance, The Entrance North, Toowoon Bay, Tumbi Umbi","state":"nsw"},{"postcode":2262,"suburbs":"Blue Haven, Budgewoi, Budgewoi Peninsula, Buff Point, Colongra, Doyalson, Doyalson North, Halekulani, San Remo","state":"nsw"},{"postcode":2263,"suburbs":"Canton Beach, Charmhaven, Gorokan, Lake Haven, Norah Head, Noraville, Toukley","state":"nsw"},{"postcode":2264,"suburbs":"Balcolyn, Bonnells Bay, Brightwaters, Dora Creek, Eraring, Mandalong, Mirrabooka, Morisset, Morisset Park, Myuna Bay, Silverwater, Sunshine, Windermere Park, Yarrawonga Park","state":"nsw"},{"postcode":2265,"suburbs":"Cooranbong, Martinsville","state":"nsw"},{"postcode":2267,"suburbs":"Wangi Wangi","state":"nsw"},{"postcode":2278,"suburbs":"Barnsley, Killingworth, Wakefield","state":"nsw"},{"postcode":2280,"suburbs":"Belmont, Belmont North, Belmont South, Croudace Bay, Floraville, Jewells, Marks Point, Valentine","state":"nsw"},{"postcode":2281,"suburbs":"Blacksmiths, Cams Wharf, Catherine Hill Bay, Caves Beach, Little Pelican, Murrays Beach, Nords Wharf, Pelican, Pinny Beach, Swansea, Swansea Heads","state":"nsw"},{"postcode":2282,"suburbs":"Eleebana, Lakelands, Warners Bay","state":"nsw"},{"postcode":2283,"suburbs":"Arcadia Vale, Awaba, Balmoral, Blackalls Park, Bolton Point, Buttaba, Carey Bay, Coal Point, Fassifern, Fennell Bay, Fishing Point, Kilaben Bay, Rathmines, Ryhope, Toronto","state":"nsw"},{"postcode":2284,"suburbs":"Argenton, Boolaroo, Booragul, Marmong Point, Speers Point, Teralba, Woodrising","state":"nsw"},{"postcode":2285,"suburbs":"Cameron Park, Cardiff, Cardiff Heights, Cardiff South, Edgeworth, Glendale, Macquarie Hills","state":"nsw"},{"postcode":2286,"suburbs":"Holmesville, Seahampton, West Wallsend","state":"nsw"},{"postcode":2287,"suburbs":"Birmingham Gardens, Elermore Vale, Fletcher, Maryland, Minmi, Rankin Park, Wallsend, Wallsend South","state":"nsw"},{"postcode":2289,"suburbs":"Adamstown, Adamstown Heights, Garden Suburb, Highfields, Kotara, Kotara Fair, Kotara South","state":"nsw"},{"postcode":2290,"suburbs":"Bennetts Green, Charlestown, Dudley, Gateshead, Hillsborough, Kahibah, Mount Hutton, Redhead, Tingira Heights, Whitebridge","state":"nsw"},{"postcode":2291,"suburbs":"Merewether, Merewether Heights, The Junction","state":"nsw"},{"postcode":2292,"suburbs":"Broadmeadow, Hamilton North","state":"nsw"},{"postcode":2293,"suburbs":"Maryville, Wickham","state":"nsw"},{"postcode":2294,"suburbs":"Carrington","state":"nsw"},{"postcode":2295,"suburbs":"Fern Bay, Stockton","state":"nsw"},{"postcode":2296,"suburbs":"Islington","state":"nsw"},{"postcode":2297,"suburbs":"Tighes Hill","state":"nsw"},{"postcode":2298,"suburbs":"Georgetown, Waratah, Waratah West","state":"nsw"},{"postcode":2299,"suburbs":"Jesmond, Lambton, North Lambton","state":"nsw"},{"postcode":2300,"suburbs":"Bar Beach, Cooks Hill, Newcastle, Newcastle East, The Hill","state":"nsw"},{"postcode":2302,"suburbs":"Newcastle West","state":"nsw"},{"postcode":2303,"suburbs":"Hamilton, Hamilton East, Hamilton South","state":"nsw"},{"postcode":2304,"suburbs":"Kooragang, Mayfield, Mayfield East, Mayfield North, Mayfield West, Sandgate, Warabrook","state":"nsw"},{"postcode":2305,"suburbs":"Kotara East, New Lambton, New Lambton Heights","state":"nsw"},{"postcode":2306,"suburbs":"Windale","state":"nsw"},{"postcode":2307,"suburbs":"Shortland","state":"nsw"},{"postcode":2308,"suburbs":"Callaghan, Newcastle University","state":"nsw"},{"postcode":2311,"suburbs":"Allynbrook, Bingleburra, Carrabolla, East Gresford, Eccleston, Gresford, Halton, Lewinsbrook, Lostock, Mount Rivers, Upper Allyn","state":"nsw"},{"postcode":2312,"suburbs":"Minimbah, Nabiac","state":"nsw"},{"postcode":2314,"suburbs":"Williamtown Raaf","state":"nsw"},{"postcode":2315,"suburbs":"Corlette, Fingal Bay, Nelson Bay, Shoal Bay","state":"nsw"},{"postcode":2316,"suburbs":"Anna Bay, Boat Harbour, Bobs Farm, Fishermans Bay, One Mile, Taylors Beach","state":"nsw"},{"postcode":2317,"suburbs":"Salamander Bay, Soldiers Point","state":"nsw"},{"postcode":2318,"suburbs":"Campvale, Ferodale, Fullerton Cove, Medowie, Oyster Cove, Salt Ash, Williamtown","state":"nsw"},{"postcode":2319,"suburbs":"Lemon Tree Passage, Mallabula, Tanilba Bay, Tilligerry Creek","state":"nsw"},{"postcode":2320,"suburbs":"Aberglasslyn, Allandale, Anambah, Bolwarra, Bolwarra Heights, Farley, Glen Oak, Gosforth, Hillsborough, Horseshoe Bend, Keinbah, Largs, Lorn, Louth Park, Maitland, Maitland North, Maitland Vale, Melville, Mindaribba, Mount Dee, Oakhampton, Oakhampton Heights, Pokolbin, Rosebrook, Rothbury, Rutherford, South Maitland, Telarah, Wallalong, Windella","state":"nsw"},{"postcode":2321,"suburbs":"Berry Park, Butterwick, Clarence Town, Cliftleigh, Duckenfield, Duns Creek, Gillieston Heights, Glen Martin, Glen William, Harpers Hill, Heddon Greta, Hinton, Lochinvar, Luskintyre, Morpeth, Oswald, Phoenix Park, Raworth, Windermere, Woodville","state":"nsw"},{"postcode":2322,"suburbs":"Beresfield, Black Hill, Chisholm, Hexham, Lenaghan, Stockrington, Tarro, Thornton, Tomago, Woodberry","state":"nsw"},{"postcode":2323,"suburbs":"Ashtonfield, Brunkerville, Buchanan, Buttai, East Maitland, Four Mile Creek, Freemans Waterhole, Green Hills, Metford, Metford DC, Mount Vincent, Mulbring, Pitnacree, Richmond Vale, Tenambit","state":"nsw"},{"postcode":2324,"suburbs":"Balickera, Brandy Hill, Bundabah, Carrington, Eagleton, East Seaham, Hawks Nest, Heatherbrae, Karuah, Limeburners Creek, Millers Forest, Nelsons Plains, North Arm Cove, Osterley, Pindimar, Raymond Terrace, Raymond Terrace East, Seaham, Swan Bay, Tahlee, Tea Gardens, Twelve Mile Creek","state":"nsw"},{"postcode":2325,"suburbs":"Aberdare, Abernethy, Bellbird, Bellbird Heights, Cedar Creek, Cessnock, Cessnock West, Congewai, Corrabare, Ellalong, Elrington, Greta Main, Kearsley, Kitchener, Laguna, Lovedale, Millfield, Moruben, Mount View, Nulkaba, Olney, Paxton, Paynes Crossing, Pelton, Quorrobolong, Sweetmans Creek, Wollombi","state":"nsw"},{"postcode":2326,"suburbs":"Abermain, Bishops Bridge, Loxford, Neath, Sawyers Gully, Weston","state":"nsw"},{"postcode":2327,"suburbs":"Kurri Kurri, Pelaw Main, Stanford Merthyr","state":"nsw"},{"postcode":2328,"suburbs":"Bureen, Dalswinton, Denman, Giants Creek, Hollydeen, Kerrabee, Mangoola, Martindale, Widden, Yarrawa","state":"nsw"},{"postcode":2329,"suburbs":"Cassilis, Merriwa, Uarbry","state":"nsw"},{"postcode":2330,"suburbs":"Appletree Flat, Big Ridge, Big Yengo, Bowmans Creek, Bridgman, Broke, Bulga, Camberwell, Carrowbrook, Clydesdale, Combo, Darlington, Doyles Creek, Dunolly, Dural, Dyrring, Falbrook, Fern Gully, Fordwich, Garland Valley, Glendon, Glendon Brook, Glennies Creek, Glenridding, Goorangoola, Gouldsville, Gowrie, Greenlands, Hambledon Hill, Hebden, Howes Valley, Howick, Hunterview, Jerrys Plains, Lemington, Long Point, Maison Dieu, Mcdougalls Hill, Middle Falbrook, Milbrodale, Mirannie, Mitchells Flat, Mount Olive, Mount Royal, Mount Thorley, Obanvale, Putty, Ravensworth, Redbournberry, Reedy Creek, Rixs Creek, Roughit, Scotts Flat, Sedgefield, Singleton, Singleton Heights, St Clair, Warkworth, Wattle Ponds, Westbrook, Whittingham, Wollemi, Wylies Flat","state":"nsw"},{"postcode":2331,"suburbs":"Singleton Military Area, Singleton Milpo","state":"nsw"},{"postcode":2333,"suburbs":"Baerami, Baerami Creek, Bengalla, Castle Rock, Edderton, Gungal, Kayuga, Liddell, Manobalai, Mccullys Gap, Muscle Creek, Muswellbrook, Sandy Hollow, Wybong","state":"nsw"},{"postcode":2334,"suburbs":"Greta","state":"nsw"},{"postcode":2335,"suburbs":"Belford, Branxton, Dalwood, East Branxton, Elderslie, Lambs Valley, Leconfield, Lower Belford, North Rothbury, Stanhope","state":"nsw"},{"postcode":2336,"suburbs":"Aberdeen, Dartbrook, Davis Creek, Rossgole, Rouchel, Rouchel Brook, Upper Dartbrook, Upper Rouchel","state":"nsw"},{"postcode":2337,"suburbs":"Belltrees, Brawboy, Bunnan, Dry Creek, Ellerston, Glenbawn, Glenrock, Gundy, Kars Springs, Middle Brook, Moobi, Moonan Brook, Moonan Flat, Murulla, Omadale, Owens Gap, Pages Creek, Parkville, Scone, Segenhoe, Stewarts Brook, Tomalla, Waverly, Wingen, Woolooma","state":"nsw"},{"postcode":2338,"suburbs":"Ardglen, Blandford, Crawney, Green Creek, Murrurundi, Pages River, Sandy Creek, Scotts Creek, Timor","state":"nsw"},{"postcode":2339,"suburbs":"Big Jacks Creek, Braefield, Cattle Creek, Chilcotts Creek, Little Jacks Creek, Macdonalds Creek, Parraweena, Warrah, Warrah Creek, Willow Tree","state":"nsw"},{"postcode":2340,"suburbs":"Appleby, Barry, Bective, Bithramere, Bowling Alley Point, Calala, Carroll, Daruka, Duncans Creek, Dungowan, East Tamworth, Garoo, Gidley, Goonoo Goonoo, Gowrie, Hallsville, Hanging Rock, Hillvue, Keepit, Kingswood, Loomberah, Moore Creek, Nemingha, North Tamworth, Nundle, Ogunbil, Oxley Vale, Piallamore, Somerton, South Tamworth, Taminda, Tamworth, Timbumburi, Wallamore, Warral, Weabonga, West Tamworth, Westdale, Woolomin","state":"nsw"},{"postcode":2341,"suburbs":"Werris Creek","state":"nsw"},{"postcode":2342,"suburbs":"Currabubula, Piallaway","state":"nsw"},{"postcode":2343,"suburbs":"Blackville, Borambil, Bundella, Caroona, Colly Blue, Coomoo Coomoo, Pine Ridge, Quipolly, Quirindi, Spring Ridge, Wallabadah, Warrah Ridge, Windy, Yannergee, Yarraman","state":"nsw"},{"postcode":2344,"suburbs":"Duri, Winton","state":"nsw"},{"postcode":2345,"suburbs":"Attunga, Garthowen","state":"nsw"},{"postcode":2346,"suburbs":"Borah Creek, Halls Creek, Klori, Manilla, Namoi River, New Mexico, Rushes Creek, Upper Manilla, Warrabah, Wimborne, Wongo Creek","state":"nsw"},{"postcode":2347,"suburbs":"Banoon, Barraba, Cobbadah, Gulf Creek, Gundamulda, Ironbark, Lindesay, Longarm, Mayvale, Red Hill, Thirloene, Upper Horton, Woodsreef","state":"nsw"},{"postcode":2350,"suburbs":"Aberfoyle, Abington, Argyle, Armidale, Boorolong, Castle Doyle, Dangarsleigh, Donald Creek, Dumaresq, Duval, Enmore, Hillgrove, Invergowrie, Jeogla, Kellys Plains, Lyndhurst, Puddledock, Saumarez, Saumarez Ponds, Thalgarrah, Tilbuster, Wards Mistake, West Armidale, Wollomombi, Wongwibinda","state":"nsw"},{"postcode":2351,"suburbs":"University Of New England","state":"nsw"},{"postcode":2352,"suburbs":"Kootingal, Limbri, Mulla Creek, Tintinhull","state":"nsw"},{"postcode":2353,"suburbs":"Moonbi","state":"nsw"},{"postcode":2354,"suburbs":"Kentucky, Kentucky South, Niangala, Nowendoc, Walcha, Walcha Road, Wollun, Woolbrook, Yarrowitch","state":"nsw"},{"postcode":2355,"suburbs":"Bendemeer, Retreat, Watsons Creek","state":"nsw"},{"postcode":2356,"suburbs":"Gwabegar","state":"nsw"},{"postcode":2357,"suburbs":"Bomera, Box Ridge, Bugaldie, Coonabarabran, Dandry, Gowang, Purlewaugh, Rocky Glen, Tannabar, Ulamambri, Wattle Springs","state":"nsw"},{"postcode":2358,"suburbs":"Arding, Balala, Gostwyck, Kingstown, Mihi, Rocky River, Salisbury Plains, Torryburn, Uralla, Yarrowyck","state":"nsw"},{"postcode":2359,"suburbs":"Aberdeen, Bakers Creek, Bundarra, Camerons Creek","state":"nsw"},{"postcode":2360,"suburbs":"Auburn Vale, Brodies Plains, Bukkulla, Cherry Tree Hill, Copeton, Elsmore, Gilgai, Graman, Gum Flat, Howell, Inverell, Kings Plains, Little Plain, Long Plain, Mount Russell, Newstead, Nullamanna, Oakwood, Paradise, Rob Roy, Sapphire, Spring Mountain, Stanborough, Swanbrook, Wallangra, Wandera, Woodstock","state":"nsw"},{"postcode":2361,"suburbs":"Ashford, Atholwood, Bonshaw, Limestone, Pindaroi","state":"nsw"},{"postcode":2365,"suburbs":"Backwater, Bald Blair, Baldersleigh, Bassendean, Ben Lomond, Black Mountain, Briarbrook, Brockley, Brushy Creek, Falconer, Georges Creek, Glen Nevis, Glencoe, Green Hills, Guyra, Llangothlin, Maybole, Mount Mitchell, New Valley, Oban, South Guyra, Tenterden, The Basin, The Gulf, Tubbamurra, Wandsworth","state":"nsw"},{"postcode":2369,"suburbs":"Old Mill, Stannifer, Tingha","state":"nsw"},{"postcode":2370,"suburbs":"Bald Nob, Diehard, Dundee, Furracabad, Gibraltar Range, Glen Elgin, Glen Innes, Kingsgate, Kookabookra, Lambs Valley, Matheson, Moggs Swamp, Moogem, Morven, Newton Boyd, Pinkett, Rangers Valley, Red Range, Reddestone, Shannon Vale, Stonehenge, Swan Vale, Wellingrove, Yarrowford","state":"nsw"},{"postcode":2371,"suburbs":"Capoompeta, Deepwater, Emmaville, Rocky Creek, Stannum, The Gulf, Torrington, Wellington Vale, Yellow Dam","state":"nsw"},{"postcode":2372,"suburbs":"Back Creek, Bolivia, Boonoo Boonoo, Boorook, Carrolls Creek, Cullendore, Forest Land, Liston, Mole River, Rivertree, Rocky River, Sandy Flat, Sandy Hill, Silent Grove, Tarban, Tenterfield, Timbarra, Willsons Downfall, Woodside, Wylie Creek","state":"nsw"},{"postcode":2379,"suburbs":"Goolhi, Mullaley, Napier Lane, Nombi","state":"nsw"},{"postcode":2380,"suburbs":"Blue Vale, Emerald Hill, Ghoolendaadi, Gunnedah, Kelvin, Marys Mount, Milroy, Orange Grove, Rangari","state":"nsw"},{"postcode":2381,"suburbs":"Breeza, Curlewis, Premer, Tambar Springs","state":"nsw"},{"postcode":2382,"suburbs":"Boggabri, Maules Creek, Wean, Willala","state":"nsw"},{"postcode":2386,"suburbs":"Burren Junction, Drildool, Nowley","state":"nsw"},{"postcode":2387,"suburbs":"Bulyeroi, Rowena","state":"nsw"},{"postcode":2388,"suburbs":"Boolcarroll, Cuttabri, Jews Lagoon, Merah North, Pilliga, Spring Plains, The Pilliga, Wee Waa, Yarrie Lake","state":"nsw"},{"postcode":2390,"suburbs":"Baan Baa, Back Creek, Berrigal, Bohena Creek, Bullawa Creek, Couradda, Edgeroi, Eulah Creek, Harparary, Jacks Creek, Kaputar, Narrabri, Narrabri West, Rocky Creek, Tarriaro, Turrawan","state":"nsw"},{"postcode":2395,"suburbs":"Binnaway, Ropers Road, Weetaliba","state":"nsw"},{"postcode":2396,"suburbs":"Baradine, Barwon, Goorianawa, Kenebri","state":"nsw"},{"postcode":2397,"suburbs":"Bellata, Millie","state":"nsw"},{"postcode":2398,"suburbs":"Gurley","state":"nsw"},{"postcode":2399,"suburbs":"Biniguy, Pallamallawa","state":"nsw"},{"postcode":2400,"suburbs":"Ashley, Bullarah, Crooble, Mallowa, Moree, Moree East, Terry Hie Hie, Tulloona","state":"nsw"},{"postcode":2401,"suburbs":"Gravesend","state":"nsw"},{"postcode":2402,"suburbs":"Balfours Peak, Coolatai, Warialda, Warialda Rail","state":"nsw"},{"postcode":2403,"suburbs":"Delungra, Gragin, Myall Creek","state":"nsw"},{"postcode":2404,"suburbs":"Bangheet, Bingara, Dinoga, Elcombe, Gineroi, Keera, Pallal, Riverview, Upper Bingara","state":"nsw"},{"postcode":2405,"suburbs":"Boomi, Garah","state":"nsw"},{"postcode":2406,"suburbs":"Mungindi, Mungindi, Weemelah","state":"nsw"},{"postcode":2408,"suburbs":"Blue Nobby, North Star, Yallaroi","state":"nsw"},{"postcode":2409,"suburbs":"Boggabilla, Boonal","state":"nsw"},{"postcode":2410,"suburbs":"Twin Rivers, Yetman","state":"nsw"},{"postcode":2411,"suburbs":"Croppa Creek","state":"nsw"},{"postcode":2415,"suburbs":"Monkerai, Nooroo, Stroud Road, Upper Karuah River, Weismantels","state":"nsw"},{"postcode":2420,"suburbs":"Alison, Bandon Grove, Bendolba, Brookfield, Cambra, Chichester, Dungog, Flat Tops, Fosterton, Hanleys Creek, Hilldale, Main Creek, Marshdale, Martins Creek, Munni, Salisbury, Stroud Hill, Sugarloaf, Tabbil Creek, Underbank, Wallaringa, Wallarobba, Wirragulla","state":"nsw"},{"postcode":2421,"suburbs":"Fishers Hill, Paterson, Summer Hill, Tocal, Torryburn, Vacy, Webbers Creek","state":"nsw"},{"postcode":2422,"suburbs":"Back Creek, Bakers Creek, Barrington, Barrington Tops, Baxters Ridge, Belbora, Berrico, Bindera, Bowman, Bowman Farm, Bretti, Bulliac, Bundook, Callaghans Creek, Cobark, Coneac, Copeland, Craven, Craven Plateau, Curricabark, Dewitt, Faulkland, Forbesdale, Gangat, Giro, Glen Ward, Gloucester, Gloucester Tops, Invergordon, Kia Ora, Mares Run, Mernot, Mograni, Moppy, Rawdon Vale, Rookhurst, Stratford, Terreel, Tibbuc, Titaatee Creek, Tugrabakh, Wallanbah, Wards River, Waukivory, Woko","state":"nsw"},{"postcode":2423,"suburbs":"Bombah Point, Boolambayte, Bulahdelah, Bungwahl, Coolongolook, Crawford River, Markwell, Mayers Flat, Mungo Brush, Myall Lake, Nerong, Seal Rocks, Topi Topi, Upper Myall, Violet Hill, Wang Wauk, Warranulla, Willina, Wootton, Yagon","state":"nsw"},{"postcode":2424,"suburbs":"Caffreys Flat, Cells River, Cooplacurripa, Cundle Flat, Knorrit Flat, Knorrit Forest, Mount George, Number One, Tiri","state":"nsw"},{"postcode":2425,"suburbs":"Allworth, Booral, Girvan, Stroud, The Branch, Washpool","state":"nsw"},{"postcode":2426,"suburbs":"Coopernook, Langley Vale, Moto","state":"nsw"},{"postcode":2427,"suburbs":"Crowdy Head, Harrington","state":"nsw"},{"postcode":2428,"suburbs":"Blueys Beach, Boomerang Beach, Booti Booti, Charlotte Bay, Coomba Bay, Coomba Park, Darawank, Elizabeth Beach, Forster, Forster Shopping Village, Green Point, Pacific Palms, Sandbar, Shallow Bay, Smiths Lake, Tarbuck Bay, Tiona, Tuncurry, Wallingat, Wallis Lake, Whoota","state":"nsw"},{"postcode":2429,"suburbs":"Bobin, Boorganna, Bucca Wauka, Bulga Forest, Bunyah, Burrell Creek, Caparra, Cedar Party, Comboyne, Dingo Forest, Dollys Flat, Dyers Crossing, Elands, Firefly, Innes View, Karaak Flat, Khatambuhl, Killabakh, Killawarra, Kimbriki, Kippaxs, Krambach, Kundibakh, Marlee, Mooral Creek, Strathcedar, The Bight, Tipperary, Warriwillah, Wherrol Flat, Wingham, Yarratt Forest","state":"nsw"},{"postcode":2430,"suburbs":"Black Head, Bohnock, Bootawa, Brimbin, Cabbage Tree Island, Chatham, Croki, Cundletown, Diamond Beach, Dumaresq Island, Failford, Ghinni Ghinni, Glenthorne, Hallidays Point, Hillville, Jones Island, Kiwarrak, Koorainghat, Kundle Kundle, Lansdowne, Lansdowne Forest, Manning Point, Melinga, Mitchells Island, Mondrook, Old Bar, Oxley Island, Pampoolah, Possum Brush, Purfleet, Rainbow Flat, Red Head, Saltwater, Tallwoods Village, Taree, Taree South, Tinonee, Upper Lansdowne, Wallabi Point","state":"nsw"},{"postcode":2431,"suburbs":"Arakoon, Jerseyville, South West Rocks","state":"nsw"},{"postcode":2439,"suburbs":"Batar Creek, Black Creek, Kendall, Kerewong, Kew, Logans Crossing, Lorne, Rossglen, Swans Crossing, Upsalls Creek","state":"nsw"},{"postcode":2440,"suburbs":"Aldavilla, Austral Eden, Bellbrook, Bellimbopinni, Belmore River, Burnt Bridge, Carrai, Clybucca, Collombatti, Comara, Corangula, Crescent Head, Deep Creek, Dondingalong, East Kempsey, Euroka, Frederickton, Gladstone, Greenhill, Hampden Hall, Hat Head, Hickeys Creek, Kempsey, Kinchela, Lower Creek, Millbank, Mooneba, Moparrabah, Mungay Creek, Old Station, Pola Creek, Rainbow Reach, Seven Oaks, Sherwood, Skillion Flat, Smithtown, South Kempsey, Summer Island, Temagog, Toorooka, Turners Flat, Verges Creek, West Kempsey, Willawarrin, Willi Willi, Wittitrin, Yarravel, Yessabah","state":"nsw"},{"postcode":2441,"suburbs":"Allgomera, Ballengarra, Barraganyatti, Bonville, Bril Bril, Brinerville, Cooperabung, Eungai Creek, Eungai Rail, Fishermans Reach, Grassy Head, Gum Scrub, Hacks Ferry, Kippara, Kundabung, Rollands Plains, Stuarts Point, Tamban, Telegraph Point, Upper Rollands Plains, Yarrahapinni","state":"nsw"},{"postcode":2443,"suburbs":"Bobs Creek, Camden Head, Coralville, Crowdy Bay National Park, Deauville, Diamond Head, Dunbogan, Hannam Vale, Herons Creek, Johns River, Lakewood, Laurieton, Middle Brother, Moorland, North Brother, North Haven, Stewarts River, Waitui, West Haven","state":"nsw"},{"postcode":2444,"suburbs":"Blackmans Point, Fernbank Creek, Flynns Beach, Lighthouse Beach, Limeburners Creek, North Shore, Port Macquarie, Port Macquarie BC, Riverside, Settlement City, The Hatch, Thrumster","state":"nsw"},{"postcode":2445,"suburbs":"Bonny Hills, Grants Beach, Jolly Nose, Lake Cathie","state":"nsw"},{"postcode":2446,"suburbs":"Bagnoo, Bago, Banda Banda, Beechwood, Bellangry, Birdwood, Brombin, Byabarra, Cairncross, Crosslands, Debenham, Doyles River, Ellenborough, Forbes River, Frazers Creek, Gearys Flat, Hartys Plains, Hollisdale, Huntingdon, Hyndmans Creek, Kindee, King Creek, Lake Innes, Long Flat, Lower Pappinbarra, Marlo Merrican, Mortons Creek, Mount Seaview, Pappinbarra, Pembrooke, Pipeclay, Rawdon Island, Redbank, Rosewood, Sancrox, Toms Creek, Upper Pappinbarra, Wauchope, Werrikimbe, Yarras, Yippin Creek","state":"nsw"},{"postcode":2447,"suburbs":"Bakers Creek, Burrapine, Congarinni, Congarinni North, Donnellyville, Gumma, Macksville, Newee Creek, North Macksville, Scotts Head, Talarm, Taylors Arm, Thumb Creek, Upper Taylors Arm, Utungun, Warrell Creek, Way Way, Wirrimbi, Yarranbella","state":"nsw"},{"postcode":2448,"suburbs":"Hyland Park, Nambucca Heads, Valla, Valla Beach","state":"nsw"},{"postcode":2449,"suburbs":"Argents Hill, Bowraville, Buckra Bendinni, Girralong, Kennaicle Creek, Killiekrankie, Missabotti, South Arm, Tewinga","state":"nsw"},{"postcode":2450,"suburbs":"Boambee, Brooklana, Bucca, Coffs Harbour, Coffs Harbour Jetty, Coffs Harbour Plaza, Coramba, Glenreagh, Karangi, Korora, Lowanna, Moonee Beach, Nana Glen, North Boambee Valley, Sapphire Beach, Sherwood, Ulong, Upper Orara","state":"nsw"},{"postcode":2452,"suburbs":"Boambee East, Sawtell, Toormina","state":"nsw"},{"postcode":2453,"suburbs":"Bielsdown Hills, Billys Creek, Bostobrick, Cascade, Clouds Creek, Deer Vale, Dorrigo, Dorrigo Mountain, Dundurrabin, Ebor, Fernbrook, Hernani, Marengo, Megan, Moonpar, Never Never, North Dorrigo, Tallowwood Ridge, Tyringham, Wild Cattle Creek","state":"nsw"},{"postcode":2454,"suburbs":"Bellingen, Brierfield, Bundagen, Darkwood, Fernmount, Gleniffer, Kalang, Mylestom, Raleigh, Repton, Spicketts Creek, Thora, Valery","state":"nsw"},{"postcode":2455,"suburbs":"Urunga","state":"nsw"},{"postcode":2456,"suburbs":"Arrawarra, Arrawarra Headland, Corindi Beach, Emerald Beach, Mullaway, Red Rock, Safety Beach, Sandy Beach, Upper Corindi, Woolgoolga","state":"nsw"},{"postcode":2460,"suburbs":"Alumy Creek, Barcoongere, Barretts Creek, Baryulgil, Blaxlands Creek, Bom Bom, Bookram, Braunstone, Brushgrove, Buccarumbi, Calamia, Cangai, Carnham, Carrs Creek, Carrs Island, Carrs Peninsular, Chaelundi, Chambigne, Clarenza, Clifden, Coaldale, Collum Collum, Coombadjha, Copmanhurst, Coutts Crossing, Cowper, Crowther Island, Dalmorton, Deep Creek, Dilkoon, Dirty Creek, Dumbudgery, Eatonsville, Eighteen Mile, Elland, Fine Flower, Fortis Creek, Glenugie, Grafton, Grafton West, Great Marlow, Gurranang, Halfway Creek, Heifer Station, Jackadgery, Junction Hill, Kangaroo Creek, Koolkhan, Kremnos, Kungala, Kyarran, Lanitza, Lawrence, Levenstrath, Lilydale, Lionsville, Lower Southgate, Malabugilmah, Moleville Creek, Mountain View, Mylneford, Newbold, Nymboida, Pulganbar, Punchbowl, Ramornie, Rushforth, Sandy Crossing, Seelands, Shannondale, Smiths Creek, South Arm, South Grafton, Southampton, Southgate, Stockyard Creek, The Pinnacles, The Whiteman, Towallum, Trenayr, Tyndale, Upper Copmanhurst, Upper Fine Flower, Warragai Creek, Washpool, Waterview, Waterview Heights, Wells Crossing, Whiteman Creek, Winegrove, Wombat Creek","state":"nsw"},{"postcode":2462,"suburbs":"Calliope, Coldstream, Diggers Camp, Gilletts Ridge, Lake Hiawatha, Lavadia, Minnie Water, Pillar Valley, Swan Creek, Tucabia, Ulmarra, Wooli","state":"nsw"},{"postcode":2463,"suburbs":"Ashby, Ashby Heights, Ashby Island, Brooms Head, Gulmarrad, Ilarwill, Jacky Bulbin Flat, James Creek, Maclean, Palmers Channel, Palmers Island, Sandon, Shark Creek, Taloumbi, The Sandon, Townsend, Tullymorgan, Woodford Island","state":"nsw"},{"postcode":2464,"suburbs":"Angourie, Freeburn Island, Micalo Island, Wooloweyah, Yamba, Yuraygir","state":"nsw"},{"postcode":2465,"suburbs":"Harwood","state":"nsw"},{"postcode":2466,"suburbs":"Iluka, The Freshwater, Woody Head","state":"nsw"},{"postcode":2469,"suburbs":"Alice, Banyabba, Bean Creek, Bingeebeebra Creek, Bonalbo, Bottle Creek, Bulldog, Bungawalbin, Busbys Flat, Cambridge Plateau, Camira, Capeen Creek, Chatsworth, Clearfield, Coongbar, Culmaran Creek, Deep Creek, Drake, Drake Village, Duck Creek, Ewingar, Gibberagee, Goodwood Island, Gorge Creek, Haystack, Hogarth Range, Jacksons Flat, Joes Box, Keybarbin, Kippenduff, Louisa Creek, Lower Bottle Creek, Lower Duck Creek, Lower Peacock, Mallanganee, Mookima Wybra, Mororo, Mount Marsh, Mummulgum, Myrtle Creek, Old Bonalbo, Paddys Flat, Pagans Flat, Peacock Creek, Pikapene, Rappville, Sandilands, Simpkins Creek, Six Mile Swamp, Tabulam, Theresa Creek, Tunglebung, Upper Duck Creek, Warregah Island, Whiporie, Woombah, Wyan, Yabbra","state":"nsw"},{"postcode":2470,"suburbs":"Babyl Creek, Backmede, Casino, Coombell, Dobies Bight, Doubtful Creek, Dyraaba, Ellangowan, Fairy Hill, Irvington, Leeville, Lower Dyraaba, Mongogarie, Naughtons Gap, North Casino, Piora, Sextonville, Shannon Brook, Spring Grove, Stratheden, Upper Mongogarie, Woodview, Woolners Arm, Yorklea","state":"nsw"},{"postcode":2471,"suburbs":"Bora Ridge, Codrington, Coraki, East Coraki, Green Forest, Greenridge, North Woodburn, Swan Bay, Tatham, West Coraki","state":"nsw"},{"postcode":2472,"suburbs":"Broadwater, Buckendoon, Esk, Kilgin, Moonem, New Italy, Rileys Hill, Tabbimoble, The Gap, Trustums Hill, Woodburn","state":"nsw"},{"postcode":2473,"suburbs":"Bundjalung, Doonbah, Evans Head, Iron Gates, South Evans Head","state":"nsw"},{"postcode":2474,"suburbs":"Afterlee, Barkers Vale, Border Ranges, Cawongla, Cedar Point, Collins Creek, Cougal, Dairy Flat, Eden Creek, Edenville, Ettrick, Fawcetts Plain, Findon Creek, Geneva, Ghinni Ghi, Gradys Creek, Green Pigeon, Grevillia, Homeleigh, Horse Station Creek, Horseshoe Creek, Iron Pot Creek, Kilgra, Kyogle, Little Back Creek, Loadstone, Lynchs Creek, New Park, Old Grevillia, Roseberry, Roseberry Creek, Rukenvale, Sawpit Creek, Sherwood, Smiths Creek, Terrace Creek, The Risk, Toonumbar, Unumgar, Upper Eden Creek, Upper Horseshoe Creek, Wadeville, Warrazambil Creek, West Wiangaree, Wiangaree, Wyneden","state":"nsw"},{"postcode":2475,"suburbs":"Tooloom, Upper Tooloom, Urbenville","state":"nsw"},{"postcode":2476,"suburbs":"Boomi Creek, Brumby Plains, Koreelah, Legume, Lindesay Creek, Muli Muli, Old Koreelah, The Glen, Woodenbong","state":"nsw"},{"postcode":2477,"suburbs":"Alstonvale, Alstonville, Bagotville, Cabbage Tree Island, Dalwood, East Wardell, Goat Island, Lynwood, Meerschaum Vale, Pearces Creek, Rous, Rous Mill, Tuckombil, Uralba, Wardell, Wollongbar","state":"nsw"},{"postcode":2478,"suburbs":"Ballina, Coolgardie, Cumbalum, East Ballina, Empire Vale, Keith Hall, Lennox Head, Patchs Beach, Pimlico, Pimlico Island, Skennars Head, South Ballina, Teven, Tintenbar, West Ballina","state":"nsw"},{"postcode":2479,"suburbs":"Bangalow, Binna Burra, Brooklet, Coopers Shoot, Coorabell, Fernleigh, Knockrow, Mcleods Shoot, Nashua, Newrybar, Possum Creek","state":"nsw"},{"postcode":2480,"suburbs":"Bentley, Bexhill, Blakebrook, Blue Knob, Boat Harbour, Booerie Creek, Boorabee Park, Booyong, Bungabbee, Caniaba, Chilcotts Grass, Clovass, Clunes, Coffee Camp, Corndale, Dorroughby, Dungarubba, Dunoon, East Lismore, Eltham, Eureka, Federal, Fernside, Georgica, Girards Hill, Goolmangar, Goonellabah, Howards Grass, Jiggi, Keerrong, Koonorigan, Lagoon Grass, Larnook, Leycester, Lillian Rock, Lindendale, Lismore, Lismore Heights, Loftville, Marom Creek, Mckees Hill, Mcleans Ridges, Modanville, Monaltrie, Mountain Top, Nightcap, Nimbin, North Lismore, Numulgi, Repentance Creek, Richmond Hill, Rock Valley, Rosebank, Ruthven, South Gundurimba, South Lismore, Stony Chute, Terania Creek, The Channon, Tregeagle, Tucki Tucki, Tuckurimba, Tullera, Tuncester, Tuntable Creek, Whian Whian, Woodlawn, Wyrallah","state":"nsw"},{"postcode":2481,"suburbs":"Broken Head, Byron Bay, Ewingsdale, Hayters Hill, Myocum, Skinners Shoot, Suffolk Park, Talofa, Tyagarah","state":"nsw"},{"postcode":2482,"suburbs":"Goonengerry, Huonbrook, Koonyum Range, Main Arm, Montecollum, Mullumbimby, Mullumbimby Creek, Palmwoods, Upper Coopers Creek, Upper Main Arm, Upper Wilsons Creek, Wanganui, Wilsons Creek","state":"nsw"},{"postcode":2483,"suburbs":"Billinudgel, Brunswick Heads, Burringbar, Crabbes Creek, Middle Pocket, Mooball, New Brighton, Ocean Shores, Sleepy Hollow, South Golden Beach, The Pocket, Upper Burringbar, Wooyung, Yelgun","state":"nsw"},{"postcode":2484,"suburbs":"Back Creek, Bray Park, Brays Creek, Byangum, Byrrill Creek, Cedar Creek, Chillingham, Chowan Creek, Clothiers Creek, Commissioners Creek, Condong, Crystal Creek, Cudgera Creek, Doon Doon, Dulguigan, Dum Dum, Dunbible, Dungay, Eungella, Eviron, Farrants Hill, Fernvale, Hopkins Creek, Kielvale, Kunghur, Kunghur Creek, Kynnumboon, Limpinwood, Mebbin, Midginbil, Mount Burrell, Mount Warning, Murwillumbah, Murwillumbah South, Nobbys Creek, North Arm, Numinbah, Nunderi, Palmvale, Pumpenbil, Reserve Creek, Round Mountain, Rowlands Creek, Smiths Creek, South Murwillumbah, Stokers Siding, Terragon, Tomewin, Tyalgum, Tyalgum Creek, Tygalgah, Uki, Upper Crystal Creek, Urliup, Wardrop Valley, Zara","state":"nsw"},{"postcode":2485,"suburbs":"Tweed Heads, Tweed Heads West","state":"nsw"},{"postcode":2486,"suburbs":"Banora Point, Bilambil, Bilambil Heights, Bungalora, Carool, Cobaki, Cobaki Lakes, Duroby, Glengarrie, Piggabeen, Terranora, Tweed Heads South, Upper Duroby","state":"nsw"},{"postcode":2487,"suburbs":"Casuarina, Chinderah, Cudgen, Duranbah, Fingal Head, Kings Forest, Kingscliff, Stotts Creek","state":"nsw"},{"postcode":2488,"suburbs":"Bogangar, Cabarita Beach, Tanglewood","state":"nsw"},{"postcode":2489,"suburbs":"Hastings Point, Pottsville, Pottsville Beach","state":"nsw"},{"postcode":2490,"suburbs":"North Tumbulgum, Tumbulgum","state":"nsw"},{"postcode":2500,"suburbs":"Coniston, Gwynneville, Keiraville, Mangerton, Mount Keira, Mount Saint Thomas, North Wollongong, Spring Hill, West Wollongong, Wollongong, Wollongong DC, Wollongong West","state":"nsw"},{"postcode":2502,"suburbs":"Cringila, Lake Heights, Primbee, Warrawong","state":"nsw"},{"postcode":2505,"suburbs":"Port Kembla","state":"nsw"},{"postcode":2506,"suburbs":"Berkeley","state":"nsw"},{"postcode":2508,"suburbs":"Coalcliff, Darkes Forest, Helensburgh, Lilyvale, Maddens Plains, Otford, Stanwell Park, Stanwell Tops, Woronora Dam","state":"nsw"},{"postcode":2515,"suburbs":"Austinmer, Clifton, Coledale, Scarborough, Thirroul, Wombarra","state":"nsw"},{"postcode":2516,"suburbs":"Bulli","state":"nsw"},{"postcode":2517,"suburbs":"Russell Vale, Woonona, Woonona East","state":"nsw"},{"postcode":2518,"suburbs":"Bellambi, Corrimal, Corrimal East, East Corrimal, Tarrawanna, Towradgi","state":"nsw"},{"postcode":2519,"suburbs":"Balgownie, Fairy Meadow, Fernhill, Mount Ousley, Mount Pleasant","state":"nsw"},{"postcode":2522,"suburbs":"University Of Wollongong","state":"nsw"},{"postcode":2525,"suburbs":"Figtree","state":"nsw"},{"postcode":2526,"suburbs":"Cordeaux, Cordeaux Heights, Dombarton, Farmborough Heights, Kembla Grange, Kembla Heights, Mount Kembla, Unanderra, Unanderra DC","state":"nsw"},{"postcode":2527,"suburbs":"Albion Park, Albion Park Rail, Calderwood, Croom, North Macquarie, Tongarra, Tullimbar, Yellow Rock","state":"nsw"},{"postcode":2528,"suburbs":"Barrack Heights, Barrack Point, Lake Illawarra, Mount Warrigal, Warilla, Windang","state":"nsw"},{"postcode":2529,"suburbs":"Blackbutt, Dunmore, Flinders, Oak Flats, Oak Flats DC, Shell Cove, Shellharbour, Shellharbour City Centre","state":"nsw"},{"postcode":2530,"suburbs":"Avondale, Brownsville, Cleveland, Dapto, Haywards Bay, Horsley, Huntley, Kanahooka, Koonawarra, Marshall Mount, Penrose, Wongawilli, Yallah","state":"nsw"},{"postcode":2533,"suburbs":"Bombo, Curramore, Jamberoo, Jerrara, Kiama, Kiama Downs, Kiama Heights, Minnamurra, Saddleback Mountain","state":"nsw"},{"postcode":2534,"suburbs":"Broughton Village, Foxground, Gerringong, Gerroa, Rose Valley, Toolijooa, Werri Beach, Willow Vale","state":"nsw"},{"postcode":2535,"suburbs":"Back Forest, Bellawongarah, Berry, Berry Mountain, Brogers Creek, Broughton, Broughton Vale, Budderoo, Bundewallah, Coolangatta, Far Meadow, Jaspers Brush, Shoalhaven Heads, Wattamolla, Woodhill","state":"nsw"},{"postcode":2536,"suburbs":"Batehaven, Batemans Bay, Benandarah, Bimbimbie, Buckenbowra, Catalina, Currowan, Denhams Beach, Depot Beach, Durras North, East Lynne, Guerilla Bay, Jeremadra, Lilli Pilli, Long Beach, Maloneys Beach, Malua Bay, Mogo, Nelligen, North Batemans Bay, Pebbly Beach, Rosedale, Runnyford, South Durras, Sunshine Bay, Surf Beach, Surfside, Woodlands","state":"nsw"},{"postcode":2537,"suburbs":"Bergalia, Bingie, Broulee, Coila, Congo, Deua, Deua River Valley, Kiora, Meringo, Mogendoura, Moruya, Moruya Heads, Mossy Point, Tomakin, Turlinjah, Tuross Head, Wamban","state":"nsw"},{"postcode":2538,"suburbs":"Brooman, Little Forest, Milton, Mogood, Morton, Porters Creek, Woodburn, Woodstock","state":"nsw"},{"postcode":2539,"suburbs":"Bawley Point, Bendalong, Berringer Lake, Burrill Lake, Cockwhy, Conjola, Conjola Park, Croobyar, Cunjurong Point, Dolphin Point, Fishermans Paradise, Kings Point, Kioloa, Lake Conjola, Lake Tabourie, Manyana, Mollymook, Mollymook Beach, Mount Kingiman, Narrawallee, Pointer Mountain, Pretty Beach, Termeil, Ulladulla, Yadboro, Yatte Yattah","state":"nsw"},{"postcode":2540,"suburbs":"Bamarang, Barringella, Basin View, Beecroft Peninsula, Berrara, Bewong, Bolong, Boolijah, Bream Beach, Browns Mountain, Brundee, Buangla, Burrier, Callala Bay, Callala Beach, Cambewarra, Cambewarra Village, Comberton, Comerong Island, Cudmirrah, Culburra Beach, Currarong, Erowal Bay, Ettrema, Falls Creek, Greenwell Point, Hmas Albatross, Hmas Creswell, Huskisson, Hyams Beach, Illaroo, Jerrawangala, Jervis Bay, Kinghorne, Longreach, Mayfield, Meroo Meadow, Mondayong, Moollattoo, Mundamia, Myola, Nowra Hill, Nowra Naval Po, Numbaa, Old Erowal Bay, Orient Point, Parma, Pyree, Sanctuary Point, St Georges Basin, Sussex Inlet, Swanhaven, Tallowal, Tapitallee, Terara, Tomerong, Tullarwalla, Twelve Mile Peg, Vincentia, Wandandian, Watersleigh, Wollumboola, Woollamia, Worrigee, Worrowing Heights, Wrights Beach, Yalwal, Yerriyong","state":"nsw"},{"postcode":2541,"suburbs":"Bangalee, Bomaderry, North Nowra, Nowra, Nowra DC, Nowra East, Nowra North, South Nowra, West Nowra","state":"nsw"},{"postcode":2545,"suburbs":"Belowra, Bodalla, Cadgee, Eurobodalla, Nerrigundah, Potato Point","state":"nsw"},{"postcode":2546,"suburbs":"Akolele, Barragga Bay, Bermagui, Central Tilba, Corunna, Cuttagee, Dalmeny, Dignams Creek, Kianga, Murrah, Mystery Bay, Narooma, North Narooma, Tilba Tilba, Tinpot, Wadbilliga, Wallaga Lake","state":"nsw"},{"postcode":2548,"suburbs":"Berrambool, Bournda, Merimbula, Mirador, Tura Beach, Yellow Pinch","state":"nsw"},{"postcode":2549,"suburbs":"Bald Hills, Broadwater, Greigs Flat, Lochiel, Millingandi, Nethercote, Pambula, Pambula Beach, South Pambula","state":"nsw"},{"postcode":2550,"suburbs":"Angledale, Bega, Bemboka, Black Range, Brogo, Buckajo, Burragate, Candelo, Chinnock, Cobargo, Coolagolite, Coolangubra, Coopers Gully, Devils Hole, Doctor George Mountain, Frogs Hollow, Greendale, Jellat Jellat, Kalaru, Kameruka, Kanoona, Kingswood, Mogareeka, Mogilla, Morans Crossing, Mumbulla Mountain, Myrtle Mountain, Nelson, New Buildings, Numbugga, Pericoe, Quaama, Reedy Swamp, Rocky Hall, South Wolumla, Stony Creek, Tanja, Tantawangalo, Tarraganda, Tathra, Toothdale, Towamba, Verona, Wallagoot, Wandella, Wapengo, Wog Wog, Wolumla, Wyndham, Yambulla, Yankees Creek, Yowrie","state":"nsw"},{"postcode":2551,"suburbs":"Boydtown, Eden, Edrom, Green Cape, Kiah, Nadgee, Narrabarba, Nullica, Nungatta, Nungatta South, Timbillica, Wonboyn, Wonboyn Lake, Wonboyn North","state":"nsw"},{"postcode":2555,"suburbs":"Badgerys Creek","state":"nsw"},{"postcode":2556,"suburbs":"Bringelly","state":"nsw"},{"postcode":2557,"suburbs":"Catherine Field, Gregory Hills, Rossmore","state":"nsw"},{"postcode":2558,"suburbs":"Eagle Vale, Eschol Park, Kearns","state":"nsw"},{"postcode":2559,"suburbs":"Blairmount, Claymore","state":"nsw"},{"postcode":2560,"suburbs":"Airds, Ambarvale, Appin, Blair Athol, Bradbury, Campbelltown, Campbelltown North, Cataract, Englorie Park, Gilead, Glen Alpine, Kentlyn, Leumeah, Macarthur Square, Rosemeadow, Ruse, St Helens Park, Wedderburn, Woodbine","state":"nsw"},{"postcode":2563,"suburbs":"Menangle Park","state":"nsw"},{"postcode":2564,"suburbs":"Glenquarie, Long Point, Macquarie Fields","state":"nsw"},{"postcode":2565,"suburbs":"Bardia, Denham Court, Ingleburn, Macquarie Links","state":"nsw"},{"postcode":2566,"suburbs":"Bow Bowing, Minto, Minto DC, Minto Heights, Raby, St Andrews, Varroville","state":"nsw"},{"postcode":2567,"suburbs":"Currans Hill, Harrington Park, Mount Annan, Narellan, Narellan DC, Narellan Vale, Smeaton Grange","state":"nsw"},{"postcode":2568,"suburbs":"Menangle","state":"nsw"},{"postcode":2569,"suburbs":"Douglas Park","state":"nsw"},{"postcode":2570,"suburbs":"Belimbla Park, Bickley Vale, Brownlow Hill, Camden, Camden Park, Camden South, Cawdor, Cobbitty, Elderslie, Ellis Lane, Glenmore, Grasmere, Kirkham, Mount Hunter, Nattai, Oakdale, Oran Park, Orangeville, Spring Farm, The Oaks, Theresa Park, Werombi","state":"nsw"},{"postcode":2571,"suburbs":"Balmoral, Buxton, Couridjah, Maldon, Mowbray Park, Picton, Razorback, Wilton","state":"nsw"},{"postcode":2572,"suburbs":"Lakesland, Thirlmere","state":"nsw"},{"postcode":2573,"suburbs":"Tahmoor","state":"nsw"},{"postcode":2574,"suburbs":"Avon, Bargo, Pheasants Nest, Yanderra","state":"nsw"},{"postcode":2575,"suburbs":"Alpine, Aylmerton, Braemar, Bullio, Colo Vale, High Range, Hill Top, Joadja, Mittagong, Mount Lindsey, Wattle Ridge, Welby, Willow Vale, Woodlands, Yerrinbool","state":"nsw"},{"postcode":2576,"suburbs":"Bowral, Burradoo, East Bowral, East Kangaloon, Glenquarry, Kangaloon","state":"nsw"},{"postcode":2577,"suburbs":"Avoca, Bangadilly, Barren Grounds, Barrengarry, Beaumont, Belanglo, Berrima, Budgong, Burrawang, Canyonleigh, Carrington Falls, Fitzroy Falls, Hanging Rock, Kangaroo Valley, Knights Hill, Macquarie Pass, Manchester Square, Medway, Meryla, Moss Vale, Mount Murray, New Berrima, Paddys River, Red Rocks, Robertson, Sutton Forest, Upper Kangaroo River, Upper Kangaroo Valley, Werai, Wildes Meadow","state":"nsw"},{"postcode":2578,"suburbs":"Bundanoon","state":"nsw"},{"postcode":2579,"suburbs":"Big Hill, Brayton, Exeter, Marulan, Penrose, Tallong, Wingello","state":"nsw"},{"postcode":2580,"suburbs":"Bannaby, Bannister, Baw Baw, Boxers Creek, Brisbane Grove, Bungonia, Carrick, Chatsbury, Currawang, Curraweela, Golspie, Goulburn, Goulburn DC, Goulburn North, Greenwich Park, Gundary, Jerrong, Kingsdale, Lake Bathurst, Lower Boro, Mayfield, Middle Arm, Mount Fairy, Mummel, Myrtleville, Paling Yards, Parkesbourne, Pomeroy, Quialigo, Richlands, Roslyn, Run-O-Waters, Stonequarry, Tarago, Taralga, Tarlo, Tirrannaville, Towrang, Wayo, Wiarborough, Windellama, Wombeyan Caves, Woodhouselee, Yalbraith, Yarra","state":"nsw"},{"postcode":2581,"suburbs":"Bellmount Forest, Bevendale, Biala, Blakney Creek, Breadalbane, Broadway, Collector, Cullerin, Dalton, Gunning, Gurrundah, Lade Vale, Lake George, Lerida, Merrill, Oolong, Wollogorang","state":"nsw"},{"postcode":2582,"suburbs":"Bango, Berremangra, Boambolo, Bookham, Bowning, Burrinjuck, Cavan, Good Hope, Jeir, Jerrawa, Kangiara, Laverstock, Manton, Marchmont, Mullion, Murrumbateman, Narrangullen, Wee Jasper, Woolgarlo, Yass, Yass River","state":"nsw"},{"postcode":2583,"suburbs":"Bigga, Binda, Crooked Corner, Crookwell, Fullerton, Grabben Gullen, Grabine, Laggan, Limerick, Lost River, Narrawa, Peelwood, Pejar, Rugby, Tuena, Wheeo","state":"nsw"},{"postcode":2584,"suburbs":"Binalong","state":"nsw"},{"postcode":2585,"suburbs":"Galong","state":"nsw"},{"postcode":2586,"suburbs":"Boorowa, Frogmore, Godfreys Creek, Murringo, Reids Flat, Rye Park, Taylors Flat","state":"nsw"},{"postcode":2587,"suburbs":"Harden, Kingsvale, Mcmahons Reef, Murrumburrah, Nubba, Wombat","state":"nsw"},{"postcode":2588,"suburbs":"Wallendbeen","state":"nsw"},{"postcode":2590,"suburbs":"Bethungra, Cootamundra, Illabo","state":"nsw"},{"postcode":2594,"suburbs":"Berthong, Bribbaree, Bulla Creek, Burrangong, Kikiamah, Maimuru, Memagong, Milvale, Monteagle, Thuddungra, Tubbul, Weedallion, Young","state":"nsw"},{"postcode":2611,"suburbs":"Bimberi, Brindabella, Chapman, Cooleman, Duffy, Fisher, Holder, Mount Stromlo, Pierces Creek, Rivett, Stirling, Uriarra, Uriarra, Uriarra Forest, Waramanga, Weston, Weston Creek","state":"nsw"},{"postcode":2618,"suburbs":"Hall, Nanima, Springrange, Wallaroo","state":"nsw"},{"postcode":2619,"suburbs":"Jerrabomberra","state":"nsw"},{"postcode":2620,"suburbs":"Beard, Burra, Carwoola, Clear Range, Crestwood, Environa, Googong, Greenleigh, Gundaroo, Hume, Karabar, Kowen Forest, Michelago, Oaks Estate, Queanbeyan, Queanbeyan DC, Queanbeyan East, Queanbeyan West, Royalla, Sutton, Tharwa, The Angle, The Ridgeway, Tinderry, Top Naas, Tralee, Urila, Wamboin, Williamsdale, Williamsdale, Yarrow","state":"nsw"},{"postcode":2621,"suburbs":"Anembo, Bungendore, Bywong, Forbes Creek, Hoskinstown, Primrose Valley, Rossi","state":"nsw"},{"postcode":2622,"suburbs":"Araluen, Back Creek, Ballalaba, Bendoura, Berlang, Bombay, Boro, Braidwood, Budawang, Bulee, Charleys Forest, Coolumburra, Corang, Durran Durra, Endrick, Farringdon, Harolds Cross, Hereford Hall, Jembaicumbene, Jerrabattgulla, Jinden, Jingera, Kindervale, Krawarree, Larbert, Majors Creek, Manar, Marlowe, Merricumbene, Monga, Mongarlowe, Mulloon, Murrengenburg, Neringla, Nerriga, Northangera, Oallen, Palerang, Quiera, Reidsdale, Sassafras, Snowball, St George, Tianjara, Tolwong, Tomboye, Touga, Warri, Wog Wog, Wyanbene","state":"nsw"},{"postcode":2623,"suburbs":"Captains Flat","state":"nsw"},{"postcode":2624,"suburbs":"Perisher Valley","state":"nsw"},{"postcode":2625,"suburbs":"Thredbo","state":"nsw"},{"postcode":2626,"suburbs":"Bredbo, Bumbalong, Colinton","state":"nsw"},{"postcode":2627,"suburbs":"Crackenback, East Jindabyne, Grosses Plain, Ingebirah, Jindabyne, Kalkite, Kosciuszko, Kosciuszko National Park, Moonbah, Pilot Wilderness","state":"nsw"},{"postcode":2628,"suburbs":"Avonside, Beloka, Berridale, Braemar Bay, Byadbo Wilderness, Cootralantra, Dalgety, Eucumbene, Hill Top, Nimmo, Numbla Vale, Paupong, Rocky Plain, Snowy Plain","state":"nsw"},{"postcode":2629,"suburbs":"Adaminaby, Anglers Reach, Bolaro, Cabramurra, Long Plain, Old Adaminaby, Providence Portal, Tantangara, Yaouk","state":"nsw"},{"postcode":2630,"suburbs":"Arable, Badja, Billilingra, Binjura, Bobundara, Buckenderra, Bungarby, Bunyan, Carlaminda, Chakola, Coolringdon, Cooma, Cooma North, Countegany, Dairymans Plains, Dangelong, Dry Plain, Frying Pan, Glen Fergus, Ironmungy, Jerangle, Jimenbuen, Maffra, Middle Flat, Middlingbank, Murrumbucca, Myalla, Numeralla, Peak View, Pine Valley, Polo Flat, Rhine Falls, Rock Flat, Rose Valley, Shannons Flat, Springfield, The Brothers, Tuross, Wambrook","state":"nsw"},{"postcode":2631,"suburbs":"Ando, Boco, Creewah, Glen Allen, Greenlands, Holts Flat, Jincumbilly, Kybeyan, Mount Cooper, Nimmitabel, Steeple Flat, Winifred","state":"nsw"},{"postcode":2632,"suburbs":"Bibbenluke, Bombala, Bondi Forest, Bukalong, Cambalong, Cathcart, Coolumbooka, Craigie, Gunningrah, Lords Hill, Merriangaah, Mila, Mount Darragh, Paddys Flat, Palarang, Quidong, Rockton, Rosemeath","state":"nsw"},{"postcode":2633,"suburbs":"Corrowong, Delegate, Tombong","state":"nsw"},{"postcode":2640,"suburbs":"Albury, Bungowannah, East Albury, Ettamogah, Glenroy, Lavington DC, Moorwatha, North Albury, Ournie, South Albury, Splitters Creek, Table Top, Talmalmo, Thurgoona, West Albury, Wirlinga, Wymah","state":"nsw"},{"postcode":2641,"suburbs":"Hamilton Valley, Lavington, Springdale Heights","state":"nsw"},{"postcode":2642,"suburbs":"Bidgeemia, Brocklesby, Burrumbuttock, Geehi, Gerogery, Glenellen, Greg Greg, Indi, Jagumba, Jagungal Wilderness, Jindera, Jingellic, Khancoban, Murray Gorge, Rand, Tooma, Walbundrie, Welaregang, Wrathall, Yerong Creek","state":"nsw"},{"postcode":2643,"suburbs":"Howlong","state":"nsw"},{"postcode":2644,"suburbs":"Bowna, Coppabella, Holbrook, Lankeys Creek, Little Billabong, Mountain Creek, Mullengandra, Wantagong, Woomargama, Yarara","state":"nsw"},{"postcode":2645,"suburbs":"Cullivel, Urana","state":"nsw"},{"postcode":2646,"suburbs":"Balldale, Collendina, Coreen, Corowa, Daysdale, Goombargana, Hopefield, Lowesdale, Nyora, Oaklands, Redlands, Rennie, Ringwood, Sanger, Savernake","state":"nsw"},{"postcode":2647,"suburbs":"Mulwala","state":"nsw"},{"postcode":2648,"suburbs":"Anabranch, Curlwaa, Pan Ban, Pooncarie, Rufus River, Scotia, Wentworth","state":"nsw"},{"postcode":2649,"suburbs":"Laurel Hill, Nurenmerenmong","state":"nsw"},{"postcode":2650,"suburbs":"Alfredtown, Ashmont, Belfrayden, Big Springs, Bomen, Book Book, Boorooma, Borambola, Bourkelands, Brucedale, Bulgary, Burrandana, Carabost, Cartwrights Hill, Collingullie, Cookardinia, Currawarna, Downside, East Wagga Wagga, Estella, Euberta, Eunanoreenya, Galore, Gelston Park, Glenfield Park, Gobbagombalin, Gregadoo, Harefield, Hillgrove, Kooringal, Kyeamba, Lake Albert, Lloyd, Maxwell, Moorong, Mount Austin, North Wagga Wagga, Oberne Creek, Oura, Pulletop, Rowan, San Isidore, Springvale, Tatton, The Gap, Tolland, Turvey Park, Wagga Wagga, Wagga Wagga BC, Wallacetown, Wantabadgery, Yarragundry, Yathella","state":"nsw"},{"postcode":2651,"suburbs":"Forest Hill, Wagga Wagga Raaf","state":"nsw"},{"postcode":2652,"suburbs":"Boorga, Boree Creek, Goolgowi, Grong Grong, Gumly Gumly, Humula, Ladysmith, Landervale, Mangoplah, Marrar, Matong, Merriwagga, Murrulebale, Old Junee, Rosewood, Tabbita, Tarcutta, Uranquinty","state":"nsw"},{"postcode":2653,"suburbs":"Burra, Courabyra, Glenroy, Mannus, Maragle, Munderoo, Paddys River, Taradale, Tumbarumba, Westdale, Willigobung","state":"nsw"},{"postcode":2655,"suburbs":"French Park, Kubura, The Rock, Tootool","state":"nsw"},{"postcode":2656,"suburbs":"Brookdale, Brookong, Fargunyah, Lockhart, Milbrulong, Osborne, Urangeline, Urangeline East","state":"nsw"},{"postcode":2658,"suburbs":"Henty, Munyabla, Pleasant Hills, Ryan","state":"nsw"},{"postcode":2659,"suburbs":"Alma Park, Walla Walla","state":"nsw"},{"postcode":2660,"suburbs":"Culcairn, Morven","state":"nsw"},{"postcode":2661,"suburbs":"Kapooka","state":"nsw"},{"postcode":2663,"suburbs":"Cowabbie, Erin Vale, Eurongilly, Junee, Marinna, Wantiool","state":"nsw"},{"postcode":2665,"suburbs":"Ardlethan, Ariah Park, Barellan, Beckom, Bectric, Binya, Kamarah, Mirrool, Moombooldool, Quandary, Tara, Walleroobie","state":"nsw"},{"postcode":2666,"suburbs":"Combaning, Dirnaseer, Gidginbung, Grogan, Junee Reefs, Mimosa, Morangarell, Narraburra, Pucawan, Reefton, Sebastopol, Springdale, Temora, Trungley Hall","state":"nsw"},{"postcode":2668,"suburbs":"Barmedman","state":"nsw"},{"postcode":2669,"suburbs":"Erigolia, Girral, Kikoira, Melbergen, Naradhan, Rankins Springs, Tallimba, Tullibigeal, Ungarie, Weethalle","state":"nsw"},{"postcode":2671,"suburbs":"Alleena, Back Creek, Burcher, Lake Cowal, North Yalgogrin, West Wyalong, Wyalong","state":"nsw"},{"postcode":2672,"suburbs":"Curlew Waters, Lake Cargelligo, Murrin Bridge","state":"nsw"},{"postcode":2675,"suburbs":"Hillston, Lake Brewster, Monia Gap, Roto, Wallanthery","state":"nsw"},{"postcode":2678,"suburbs":"Charles Sturt University, Riverina Msc","state":"nsw"},{"postcode":2680,"suburbs":"Beelbangera, Benerembah, Bilbul, Griffith, Griffith DC, Griffith East, Hanwood, Kooba, Lake Wyangan, Nericon, Tharbogang, Warburn, Warrawidgee, Widgelli, Willbriggie, Yoogali","state":"nsw"},{"postcode":2681,"suburbs":"Myall Park, Yenda","state":"nsw"},{"postcode":2700,"suburbs":"Bundure, Colinroobie, Corobimilla, Cudgel, Euroley, Gillenbah, Kywong, Morundah, Narrandera, Sandigo","state":"nsw"},{"postcode":2701,"suburbs":"Berry Jerry, Coolamon, Methul, Rannock","state":"nsw"},{"postcode":2702,"suburbs":"Ganmain","state":"nsw"},{"postcode":2703,"suburbs":"Yanco","state":"nsw"},{"postcode":2705,"suburbs":"Brobenah, Corbie Hill, Gogeldrie, Leeton, Merungle Hill, Murrami, Stanbridge, Whitton","state":"nsw"},{"postcode":2706,"suburbs":"Darlington Point","state":"nsw"},{"postcode":2707,"suburbs":"Argoon, Coleambally","state":"nsw"},{"postcode":2710,"suburbs":"Barratta, Birganbigil, Booroorban, Bullatale, Caldwell, Calimo, Conargo, Coree, Deniliquin, Hartwood, Lindifferon, Mathoura, Mayrung, Moonbria, Morago, Pretty Pine, Steam Plains, Stud Park, Wakool, Wandook, Wanganella, Warragoon, Willurah","state":"nsw"},{"postcode":2711,"suburbs":"Booligal, Carrathool, Clare, Corrong, Gunbar, Hay, Hay South, Keri Keri, Maude, One Tree, Oxley, Waugorah, Yanga","state":"nsw"},{"postcode":2712,"suburbs":"Berrigan, Boomanoomana","state":"nsw"},{"postcode":2713,"suburbs":"Blighty, Finley, Logie Brae, Myrtle Park","state":"nsw"},{"postcode":2714,"suburbs":"Aratula, Pine Lodge, Tocumwal, Tuppal","state":"nsw"},{"postcode":2715,"suburbs":"Arumpo, Balranald, Hatfield, Mungo","state":"nsw"},{"postcode":2716,"suburbs":"Four Corners, Gala Vale, Jerilderie, Mabins Well, Mairjimmy","state":"nsw"},{"postcode":2717,"suburbs":"Dareton","state":"nsw"},{"postcode":2720,"suburbs":"Argalong, Blowering, Bogong Peaks Wilderness, Bombowlee, Bombowlee Creek, Buddong, Couragago, Gadara, Gilmore, Gocup, Goobarragandra, Jones Bridge, Killimicat, Lacmalac, Little River, Minjary, Mundongo, Pinbeyan, Red Hill, Talbingo, Tumorrama, Tumut, Tumut Plains, Wereboldera, Wermatong, Windowie, Wyangle, Yarrangobilly","state":"nsw"},{"postcode":2721,"suburbs":"Bland, Quandialla","state":"nsw"},{"postcode":2722,"suburbs":"Brungle, Brungle Creek, Burra Creek, Darbalara, Gundagai, Jones Creek, Muttama, Nangus, South Gundagai","state":"nsw"},{"postcode":2725,"suburbs":"Stockinbingal","state":"nsw"},{"postcode":2726,"suburbs":"Jugiong","state":"nsw"},{"postcode":2727,"suburbs":"Adjungbilly, Coolac, Gobarralong","state":"nsw"},{"postcode":2729,"suburbs":"Adelong, Bangadang, Black Creek, Califat, Cooleys Creek, Darlow, Ellerslie, Grahamstown, Mount Adrah, Mount Horeb, Mundarlo, Sandy Gully, Sharps Creek, Tumblong, Westwood, Wondalga, Yaven Creek","state":"nsw"},{"postcode":2730,"suburbs":"Batlow, Green Hills, Kunama, Lower Bago","state":"nsw"},{"postcode":2731,"suburbs":"Bunnaloo, Moama, Tantonan, Thyra, Womboota","state":"nsw"},{"postcode":2732,"suburbs":"Barham, Burraboi, Cobramunga, Gonn, Noorong, Thule, Tullakool","state":"nsw"},{"postcode":2733,"suburbs":"Dhuragoon, Moulamein, Niemur","state":"nsw"},{"postcode":2734,"suburbs":"Cunninyeuk, Dilpurra, Kyalite, Mellool, Moolpa, Stony Crossing, Tooranie, Wetuppa","state":"nsw"},{"postcode":2735,"suburbs":"Koraleigh, Speewa","state":"nsw"},{"postcode":2736,"suburbs":"Goodnight, Tooleybuc","state":"nsw"},{"postcode":2737,"suburbs":"Euston","state":"nsw"},{"postcode":2738,"suburbs":"Gol Gol, Monak","state":"nsw"},{"postcode":2739,"suburbs":"Buronga","state":"nsw"},{"postcode":2745,"suburbs":"Glenmore Park, Greendale, Luddenham, Mulgoa, Regentville, Wallacia","state":"nsw"},{"postcode":2747,"suburbs":"Cambridge Gardens, Cambridge Park, Claremont Meadows, Kingswood, Llandilo, Shanes Park, Werrington, Werrington County, Werrington Downs","state":"nsw"},{"postcode":2748,"suburbs":"Orchard Hills","state":"nsw"},{"postcode":2749,"suburbs":"Castlereagh, Cranebrook","state":"nsw"},{"postcode":2750,"suburbs":"Emu Heights, Emu Plains, Jamisontown, Leonay, Penrith, Penrith Plaza, Penrith South, South Penrith","state":"nsw"},{"postcode":2752,"suburbs":"Silverdale, Warragamba","state":"nsw"},{"postcode":2753,"suburbs":"Agnes Banks, Bowen Mountain, Grose Vale, Grose Wold, Hobartville, Londonderry, Richmond, Richmond Lowlands, Yarramundi","state":"nsw"},{"postcode":2754,"suburbs":"North Richmond, Tennyson, The Slopes","state":"nsw"},{"postcode":2755,"suburbs":"Richmond Raaf","state":"nsw"},{"postcode":2756,"suburbs":"Bligh Park, Cattai, Central Colo, Clarendon, Colo, Colo Heights, Cornwallis, Cumberland Reach, Ebenezer, Freemans Reach, Glossodia, Lower Portland, Maroota, Mcgraths Hill, Mellong, Mulgrave, Pitt Town, Pitt Town Bottoms, Sackville, Sackville North, Scheyville, South Maroota, South Windsor, Upper Colo, Wilberforce, Windsor, Windsor Downs, Womerah","state":"nsw"},{"postcode":2757,"suburbs":"Kurmond","state":"nsw"},{"postcode":2758,"suburbs":"Berambing, Bilpin, Blaxlands Ridge, East Kurrajong, Kurrajong, Kurrajong Heights, Kurrajong Hills, Mount Tomah, Mountain Lagoon, The Devils Wilderness, Wheeny Creek","state":"nsw"},{"postcode":2759,"suburbs":"Erskine Park, St Clair","state":"nsw"},{"postcode":2760,"suburbs":"Colyton, North St Marys, Oxley Park, Ropes Crossing, St Marys, St Marys East, St Marys South","state":"nsw"},{"postcode":2761,"suburbs":"Colebee, Dean Park, Glendenning, Hassall Grove, Oakhurst, Plumpton","state":"nsw"},{"postcode":2762,"suburbs":"Schofields","state":"nsw"},{"postcode":2763,"suburbs":"Acacia Gardens, Quakers Hill","state":"nsw"},{"postcode":2765,"suburbs":"Berkshire Park, Box Hill, Maraylya, Marsden Park, Nelson, Oakville, Riverstone, Vineyard","state":"nsw"},{"postcode":2766,"suburbs":"Eastern Creek, Rooty Hill","state":"nsw"},{"postcode":2767,"suburbs":"Doonside, Woodcroft","state":"nsw"},{"postcode":2768,"suburbs":"Glenwood, Parklea, Stanhope Gardens","state":"nsw"},{"postcode":2769,"suburbs":"The Ponds","state":"nsw"},{"postcode":2770,"suburbs":"Bidwill, Blackett, Dharruk, Emerton, Hebersham, Lethbridge Park, Minchinbury, Mount Druitt, Mount Druitt Village, Shalvey, Tregear, Whalan, Willmot","state":"nsw"},{"postcode":2773,"suburbs":"Glenbrook, Lapstone","state":"nsw"},{"postcode":2774,"suburbs":"Blaxland, Blaxland East, Mount Riverview, Warrimoo","state":"nsw"},{"postcode":2775,"suburbs":"Central Macdonald, Fernances, Gunderman, Higher Macdonald, Laughtondale, Leets Vale, Lower Macdonald, Marlow, Mogo Creek, Perrys Crossing, Singletons Mill, Spencer, St Albans, Upper Macdonald, Webbs Creek, Wisemans Ferry, Wrights Creek","state":"nsw"},{"postcode":2776,"suburbs":"Faulconbridge","state":"nsw"},{"postcode":2777,"suburbs":"Hawkesbury Heights, Springwood, Sun Valley, Valley Heights, Winmalee, Yellow Rock","state":"nsw"},{"postcode":2778,"suburbs":"Linden, Woodford","state":"nsw"},{"postcode":2779,"suburbs":"Hazelbrook","state":"nsw"},{"postcode":2780,"suburbs":"Katoomba, Katoomba DC, Leura, Medlow Bath","state":"nsw"},{"postcode":2782,"suburbs":"Wentworth Falls","state":"nsw"},{"postcode":2783,"suburbs":"Lawson","state":"nsw"},{"postcode":2784,"suburbs":"Bullaburra","state":"nsw"},{"postcode":2785,"suburbs":"Blackheath, Megalong","state":"nsw"},{"postcode":2786,"suburbs":"Bell, Dargan, Mount Irvine, Mount Victoria, Mount Wilson","state":"nsw"},{"postcode":2787,"suburbs":"Black Springs, Chatham Valley, Duckmaloi, Edith, Gingkin, Gurnang, Hazelgrove, Jaunter, Kanangra, Mayfield, Mount Olive, Mount Werong, Mozart, Norway, Oberon, Porters Retreat, Shooters Hill, Tarana, The Meadows","state":"nsw"},{"postcode":2790,"suburbs":"Ben Bullen, Blackmans Flat, Bowenfels, Clarence, Cobar Park, Corney Town, Cullen Bullen, Doctors Gap, Ganbenang, Hampton, Hartley, Hartley Vale, Hassans Walls, Hermitage Flat, Jenolan, Kanimbla, Lidsdale, Lithgow, Lithgow DC, Little Hartley, Littleton, Lowther, Marrangaroo, Mckellars Park, Morts Estate, Mount Lambie, Newnes, Newnes Plateau, Oaky Park, Pottery Estate, Rydal, Sheedys Gully, Sodwalls, South Bowenfels, South Littleton, Springvale, State Mine Gully, Vale Of Clwydd, Wolgan Valley, Wollangambe","state":"nsw"},{"postcode":2791,"suburbs":"Carcoar, Errowanbang","state":"nsw"},{"postcode":2792,"suburbs":"Burnt Yards, Mandurama","state":"nsw"},{"postcode":2793,"suburbs":"Darbys Falls, Roseberg, Woodstock","state":"nsw"},{"postcode":2794,"suburbs":"Bumbaldry, Cowra, Hovells Creek, Mount Collins, Wattamondara","state":"nsw"},{"postcode":2795,"suburbs":"Abercrombie, Abercrombie River, Arkell, Arkstone, Bald Ridge, Ballyroe, Bathampton, Bathurst, Billywillinga, Brewongle, Bruinbun, Burraga, Caloola, Charles Sturt University, Charlton, Clear Creek, Colo, Copperhannia, Cow Flat, Crudine, Curragh, Dark Corner, Dog Rocks, Dunkeld, Duramana, Eglinton, Essington, Evans Plains, Fitzgeralds Valley, Forest Grove, Fosters Valley, Freemantle, Gemalla, Georges Plains, Gilmandyke, Glanmire, Gormans Hill, Gowan, Hobbys Yards, Isabella, Jeremy, Judds Creek, Kelso, Killongbutta, Kirkconnell, Laffing Waters, Limekilns, Llanarth, Locksley, Meadow Flat, Milkers Flat, Millah Murrah, Mitchell, Moorilda, Mount David, Mount Panorama, Mount Rankin, Napoleon Reef, Newbridge, O\\Connell, Orton Park, Paling Yards, Palmers Oaky, Peel, Perthville, Raglan, Robin Hill, Rock Forest, Rockley, Rockley Mount, Sofala, South Bathurst, Stewarts Mount, Sunny Corner, Tambaroora, Tannas Mount, The Lagoon, The Rocks, Triangle Flat, Trunkey Creek, Turondale, Twenty Forests, Upper Turon, Walang, Wambool, Wattle Flat, Watton, West Bathurst, White Rock, Wiagdon, Wimbledon, Winburndale, Windradyne, Wisemans Creek, Yarras, Yetholme","state":"nsw"},{"postcode":2797,"suburbs":"Garland, Lyndhurst","state":"nsw"},{"postcode":2798,"suburbs":"Byng, Forest Reefs, Guyong, Millthorpe, Spring Terrace, Tallwood","state":"nsw"},{"postcode":2799,"suburbs":"Barry, Blayney, Browns Creek, Fitzgeralds Mount, Kings Plains, Neville, Vittoria","state":"nsw"},{"postcode":2800,"suburbs":"Belgravia, Borenore, Cadia, Canobolas, Cargo, Clergate, Clifton Grove, Emu Swamp, Four Mile Creek, Huntley, Kangaroobie, Kerrs Creek, Lewis Ponds, Lidster, Lower Lewis Ponds, Lucknow, March, Mullion Creek, Nangar, Nashdale, Ophir, Orange, Orange DC, Orange East, Panuara, Shadforth, Spring Creek, Spring Hill, Springside, Summer Hill Creek, Waldegrave, Windera","state":"nsw"},{"postcode":2803,"suburbs":"Bendick Murrell, Crowther, Wirrimah","state":"nsw"},{"postcode":2804,"suburbs":"Billimari, Canowindra, Moorbel, Nyrang Creek","state":"nsw"},{"postcode":2805,"suburbs":"Gooloogong","state":"nsw"},{"postcode":2806,"suburbs":"Eugowra","state":"nsw"},{"postcode":2807,"suburbs":"Koorawatha","state":"nsw"},{"postcode":2808,"suburbs":"Wyangala","state":"nsw"},{"postcode":2809,"suburbs":"Greenethorpe","state":"nsw"},{"postcode":2810,"suburbs":"Bimbi, Caragabal, Glenelg, Grenfell, Piney Range, Pinnacle, Pullabooka, Warraderry","state":"nsw"},{"postcode":2817,"state":"nsw"},{"postcode":2818,"state":"nsw"},{"postcode":2820,"suburbs":"Apsley, Arthurville, Bakers Swamp, Bodangora, Comobella, Curra Creek, Dripstone, Farnham, Gollan, Lake Burrendong, Maryvale, Medway, Montefiores, Mookerawa, Mount Aquila, Mount Arthur, Mumbil, Nanima, Neurea, Spicers Creek, Stuart Town, Suntop, Walmer, Wellington, Wuuluman, Yarragal","state":"nsw"},{"postcode":2821,"suburbs":"Burroway, Narromine","state":"nsw"},{"postcode":2822,"state":"nsw"},{"postcode":2823,"suburbs":"Bundemar, Cathundral, Dandaloo, Gin Gin, Trangie","state":"nsw"},{"postcode":2824,"suburbs":"Beemunnel, Eenaweena, Marthaguy, Mount Foster, Mount Harris, Mumblebone Plain, Oxley, Pigeonbah, Ravenswood, Red Hill, Snakes Plain, Tenandra, Warren","state":"nsw"},{"postcode":2825,"suburbs":"Babinda, Bobadah, Bogan, Buddabadah, Canonba, Five Ways, Honeybugle, Miandetta, Mulla, Mullengudgery, Murrawombie, Nyngan, Pangee","state":"nsw"},{"postcode":2826,"state":"nsw"},{"postcode":2827,"suburbs":"Bearbong, Biddon, Breelong, Collie, Curban, Gilgandra, Merrigal","state":"nsw"},{"postcode":2828,"suburbs":"Black Hollow, Bourbah, Gulargambone, Mount Tenandra, Quanda, Tonderburine, Warrumbungle","state":"nsw"},{"postcode":2829,"suburbs":"Billeroy, Combara, Conimbia, Coonamble, Gilgooma, Magometon, Nebea, Pine Grove, Teridgerie, Urawilkie, Wingadee","state":"nsw"},{"postcode":2830,"suburbs":"Ballimore, Barbigal, Beni, Boothenba, Brocklehurst, Bruah, Bunglegumbie, Burrabadine, Butlers Falls, Coolbaggie, Cumboogle, Dubbo, Dubbo DC, Dubbo East, Dubbo Grove, Dubbo West, Eschol, Eulomogo, Glengerra, Goonoo Forest, Jones Creek, Kickabil, Minore, Mogriguy, Mountain Creek, Muronbung, Murrumbidgerie, Rawsonville, Terramungamine, Toongi, Wambangalang, Yarrabar","state":"nsw"},{"postcode":2831,"suburbs":"Armatree, Balladoran, Brenda, Bullagreen, Byrock, Carinda, Coolabah, Elong Elong, Eumungerie, Geurie, Girilambone, Goodooga, Gungalman, Hermidale, Macquarie Marshes, Merrygoen, Neilrex, Nevertire, Nubingerie, Nymagee, Pine Clump, Ponto, Quambone, Terrabella, The Marra, Tooloon, Tooraweenah, Westella, Wongarbon","state":"nsw"},{"postcode":2832,"suburbs":"Come By Chance, Cryon, Cumborah, Walgett","state":"nsw"},{"postcode":2833,"suburbs":"Collarenebri","state":"nsw"},{"postcode":2834,"suburbs":"Angledool, Lightning Ridge","state":"nsw"},{"postcode":2835,"suburbs":"Bulla, Canbelego, Cobar, Cubba, Gilgunnia, Irymple, Kerrigundi, Kulwin, Lerida, Noona, Sandy Creek, Tindarey","state":"nsw"},{"postcode":2836,"suburbs":"White Cliffs, Wilcannia","state":"nsw"},{"postcode":2838,"state":"nsw"},{"postcode":2839,"suburbs":"Bogan, Brewarrina, Collerina, Gongolgon, Narran Lake, Talawanta, Weilmoringle","state":"nsw"},{"postcode":2840,"suburbs":"Bourke, Enngonia, Fords Bridge, Gumbalie, Gunderbooka, Hungerford, Louth, Tilpa, Wanaaring, Yantabulla","state":"nsw"},{"postcode":2842,"suburbs":"Mendooran, Mollyan, Wattle Springs, Yarragrin","state":"nsw"},{"postcode":2843,"suburbs":"Coolah","state":"nsw"},{"postcode":2844,"suburbs":"Birriwa, Dunedoo, Leadville","state":"nsw"},{"postcode":2845,"suburbs":"Wallerawang","state":"nsw"},{"postcode":2846,"suburbs":"Capertee, Glen Davis, Round Swamp","state":"nsw"},{"postcode":2847,"suburbs":"Portland","state":"nsw"},{"postcode":2848,"suburbs":"Brogans Creek, Charbon, Clandulla, Kandos","state":"nsw"},{"postcode":2849,"suburbs":"Bogee, Breakfast Creek, Budden, Bylong, Camboon, Carwell, Coggan, Coxs Creek, Coxs Crown, Dabee, Dungeree, Dunville Loop, Ginghi, Glen Alice, Growee, Kelgoola, Lee Creek, Mount Marsden, Murrumbo, Nullo Mountain, Olinda, Pinnacle Swamp, Pyangle, Reedy Creek, Rylstone, Upper Bylong, Upper Growee, Upper Nile, Wirraba","state":"nsw"},{"postcode":2850,"suburbs":"Aarons Pass, Apple Tree Flat, Avisford, Bara, Barigan, Ben Buckley, Bocoble, Bombira, Botobolar, Buckaroo, Budgee Budgee, Burrundulla, Caerleon, Canadian Lead, Carcalgong, Collingwood, Cooks Gap, Cooyal, Cross Roads, Cudgegong, Cullenbone, Cumbo, Erudgere, Eurunderee, Frog Rock, Galambine, Glen Ayr, Grattai, Green Gully, Hargraves, Havilah, Hayes Gap, Hill End, Home Rule, Ilford, Kains Flat, Linburn, Lue, Maitland Bar, Menah, Meroo, Milroy, Mogo, Monivae, Moolarben, Mount Frome, Mount Knowles, Mount Vincent, Mudgee, Mullamuddy, Munghorn, Piambong, Putta Bucca, Pyramul, Queens Pinch, Razorback, Riverlea, Running Stream, Sallys Flat, Spring Flat, St Fillans, Stony Creek, Tambaroora, Tichular, Totnes Valley, Triamble, Turill, Twelve Mile, Ulan, Ullamalla, Wilbetree, Wilpinjong, Windeyer, Wollar, Worlds End, Yarrabin, Yarrawonga","state":"nsw"},{"postcode":2852,"suburbs":"Barneys Reef, Beryl, Biraganbil, Bungaba, Cope, Cumbandry, Goolma, Gulgong, Mebul, Merotherie, Stubbo, Tallawang","state":"nsw"},{"postcode":2864,"suburbs":"Boree, Bowan Park, Cudal, Murga, Toogong","state":"nsw"},{"postcode":2865,"suburbs":"Bocobra, Gumble, Manildra","state":"nsw"},{"postcode":2866,"suburbs":"Amaroo, Boomey, Cundumbul, Euchareena, Garra, Larras Lee, Molong","state":"nsw"},{"postcode":2867,"suburbs":"Baldry, Cumnock, Eurimbla, Loombah, Yullundry","state":"nsw"},{"postcode":2868,"suburbs":"Bournewood, Little River, North Yeoval, Obley, Upper Obley, Yeoval","state":"nsw"},{"postcode":2869,"suburbs":"Peak Hill, Tomingley, Trewilga","state":"nsw"},{"postcode":2870,"suburbs":"Alectown, Bumberry, Cookamidgera, Cooks Myalls, Goonumbla, Mandagery, Parkes, Tichborne","state":"nsw"},{"postcode":2871,"suburbs":"Bandon, Bedgerebong, Bundaburrah, Calarie, Carrawabbity, Corinella, Cumbijowa, Daroobalgie, Fairholme, Forbes, Garema, Grawlin, Gunning Gap, Jemalong, Mulyandry, Ooma, Warroo, Weelong, Wirrinya, Yarragong","state":"nsw"},{"postcode":2873,"suburbs":"Albert, Miamley, Tottenham","state":"nsw"},{"postcode":2874,"suburbs":"Tullamore","state":"nsw"},{"postcode":2875,"suburbs":"Bruie Plains, Fifield, Ootha, Trundle, Yarrabandai","state":"nsw"},{"postcode":2876,"suburbs":"Bogan Gate, Gunningbland, Nelungaloo","state":"nsw"},{"postcode":2877,"suburbs":"Boona Mount, Condobolin, Derriwong, Eremerang, Euabalong, Euabalong West, Kiacatoo, Mount Hope, Mulguthrie","state":"nsw"},{"postcode":2878,"suburbs":"Ivanhoe, Mossgiel","state":"nsw"},{"postcode":2879,"suburbs":"Menindee, Sunset Strip","state":"nsw"},{"postcode":2880,"suburbs":"Broken Hill, Broken Hill North, Broken Hill West, Broughams Gate, Fowlers Gap, Little Topar, Milparinka, Mutawintji, Packsaddle, Silverton, South Broken Hill, Tibooburra","state":"nsw"},{"postcode":2898,"suburbs":"Lord Howe Island","state":"nsw"},{"postcode":3644,"suburbs":"Barooga, Cobram, Cobram East, Koonoomoo, Lalalty, Muckatah, Yarroweyah","state":"nsw"},{"postcode":3691,"suburbs":"Allans Flat, Bandiana, Baranduda, Barnawartha North, Bellbridge, Berringama, Bethanga, Bonegilla, Bungil, Castle Creek, Coral Bank, Dederang, Ebden, Gateway Island, Glen Creek, Gundowring, Huon Creek, Kancoona, Kergunyah, Kergunyah South, Kiewa, Killara, Lake Hume Village, Leneva, Lucyvale, Mongans Bridge, Osbornes Flat, Running Creek, Staghorn Flat, Talgarno, Tangambalanga, Thologolong, Upper Gundowring, Wodonga Forward","state":"nsw"},{"postcode":3707,"suburbs":"Biggara, Bringenbrong, Colac Colac, Corryong, Nariel Valley, Thowgla Valley, Tom Groggin, Towong, Towong Upper","state":"nsw"},{"postcode":4375,"suburbs":"Cottonvale, Fleurbaix","state":"nsw"},{"postcode":4377,"suburbs":"Glen Niven, Maryland, The Summit","state":"nsw"},{"postcode":4380,"suburbs":"Amiens, Broadwater, Cannon Creek, Dalcouth, Eukey, Glenlyon, Greenlands, Kyoomba, Mingoola, Mount Tully, Nundubbermere, Pikedale, Pikes Creek, Severnlea, Springdale, Stanthorpe, Storm King, Sugarloaf, Thorndale","state":"nsw"},{"postcode":4383,"suburbs":"Jennings, Wallangarra","state":"nsw"},{"postcode":4385,"suburbs":"Beebo, Bonshaw, Camp Creek, Glenarbon, Maidenhead, Riverton, Silver Spur, Smithlea, Texas, Texas, Watsons Crossing","state":"nsw"}]
